[
 {
  "tel": "2201-3218",
  "name": "愛友家畜醫院",
  "zip": 242047,
  "address": "新北市新莊區中正路427-2號",
  "animal_hospital_license": "北府畜醫業字第16號",
  "administrator": "劉信念",
  "veterinarian_license": "新北獸師執字第165號",
  "twd97x": 294781.41,
  "twd97y": 2769633.44,
  "wgs84ax": 121.443763,
  "wgs84ay": 25.034149
 },
 {
  "tel": "2928-0986",
  "name": "吉利家畜醫院",
  "zip": 234027,
  "address": "新北市永和區永貞路108號",
  "animal_hospital_license": "北府畜醫業字第26號",
  "administrator": "周文武",
  "veterinarian_license": "新北獸師執字第128號",
  "twd97x": 302389.04,
  "twd97y": 2766384.2,
  "wgs84ax": 121.519026,
  "wgs84ay": 25.004571
 },
 {
  "tel": "2251-3076",
  "name": "富安家畜醫院",
  "zip": 220026,
  "address": "新北市板橋區文化路2段335號",
  "animal_hospital_license": "北府畜醫業字第28號",
  "administrator": "楊坤富",
  "veterinarian_license": "新北獸師執字第153號",
  "twd97x": 297679.64,
  "twd97y": 2769233.47,
  "wgs84ax": 121.472469,
  "wgs84ay": 25.03045
 },
 {
  "tel": "2967-8864",
  "name": "後埔動物醫院",
  "zip": 220051,
  "address": "新北市板橋區館前西路156-1號",
  "animal_hospital_license": "北府畜醫業字第32號",
  "administrator": "黃約伯",
  "veterinarian_license": "新北獸師執字第135號",
  "twd97x": 295936.44,
  "twd97y": 2766806.34,
  "wgs84ax": 121.455115,
  "wgs84ay": 25.008591
 },
 {
  "tel": "2941-0466",
  "name": "中盟動物醫院",
  "zip": 234043,
  "address": "新北市永和區中正路113號",
  "animal_hospital_license": "北府畜醫業字第40號",
  "administrator": "鄭漢文",
  "veterinarian_license": "新北獸師執字第051號",
  "twd97x": 302051.46,
  "twd97y": 2765615.89,
  "wgs84ax": 121.515653,
  "wgs84ay": 24.997646
 },
 {
  "tel": "2683-5698",
  "name": "永發獸醫院",
  "zip": 238007,
  "address": "新北市樹林區樹新路35號",
  "animal_hospital_license": "北府畜醫業字第45號",
  "administrator": "陳明通",
  "veterinarian_license": "新北獸師執字第085號",
  "twd97x": 293103.64,
  "twd97y": 2765254.71,
  "wgs84ax": 121.427001,
  "wgs84ay": 24.994666
 },
 {
  "tel": "2221-8515",
  "name": "亞東動物醫院",
  "zip": 235020,
  "address": "新北市中和區中正路639號",
  "animal_hospital_license": "北府畜醫業字第53號",
  "administrator": "范成棟",
  "veterinarian_license": "新北獸師執字第045號",
  "twd97x": 298972.64,
  "twd97y": 2765374.16,
  "wgs84ax": 121.485144,
  "wgs84ay": 24.995566
 },
 {
  "tel": "2219-2055",
  "name": "強生動物醫院",
  "zip": 231009,
  "address": "新北市新店區中正路392號",
  "animal_hospital_license": "北府畜醫業字第55號",
  "administrator": "諶家強",
  "veterinarian_license": "新北獸師執字第046號",
  "twd97x": 303981.62,
  "twd97y": 2763368.65,
  "wgs84ax": 121.534686,
  "wgs84ay": 24.977291
 },
 {
  "tel": "2912-7025",
  "name": "永康動物醫院",
  "zip": 231002,
  "address": "新北市新店區北新路1段171號",
  "animal_hospital_license": "北府畜醫業字第85號",
  "administrator": "徐于忠",
  "veterinarian_license": "新北獸師執字第168號",
  "twd97x": 304515.16,
  "twd97y": 2761906.02,
  "wgs84ax": 121.539912,
  "wgs84ay": 24.964067
 },
 {
  "tel": "2258-8987",
  "name": "台灣動物醫院",
  "zip": 220014,
  "address": "新北市板橋區陽明街54號",
  "animal_hospital_license": "北府畜醫業字第86號",
  "administrator": "薛敦元",
  "veterinarian_license": "新北獸師執字第082號",
  "twd97x": 296950.9,
  "twd97y": 2768328.49,
  "wgs84ax": 121.465217,
  "wgs84ay": 25.022302
 },
 {
  "tel": "2245-5686",
  "name": "康寶動物醫院",
  "zip": 235046,
  "address": "新北市中和區中興街130號",
  "animal_hospital_license": "北府畜醫業字第89號",
  "administrator": "游秀彬",
  "veterinarian_license": "新北獸師執字第113號",
  "twd97x": 300448.26,
  "twd97y": 2765040.43,
  "wgs84ax": 121.49975,
  "wgs84ay": 24.992505
 },
 {
  "tel": "2266-0150",
  "name": "先鋒家畜診所",
  "zip": 236008,
  "address": "新北市土城區立德路26號",
  "animal_hospital_license": "北府畜醫業字第95號",
  "administrator": "蔡文成",
  "veterinarian_license": "新北獸佐執字第045號",
  "twd97x": 296737.91,
  "twd97y": 2764486.98,
  "wgs84ax": 121.462977,
  "wgs84ay": 24.987627
 },
 {
  "tel": "2941-4760",
  "name": "長榮動物醫院",
  "zip": 235087,
  "address": "新北市中和區景平路380號",
  "animal_hospital_license": "北府畜醫業字第99號",
  "administrator": "陳永瑞",
  "veterinarian_license": "新北獸師執字第209號",
  "twd97x": 301559.39,
  "twd97y": 2765098.66,
  "wgs84ax": 121.510759,
  "wgs84ay": 24.992993
 },
 {
  "tel": "2940-1781",
  "name": "協和獸醫院",
  "zip": 235086,
  "address": "新北市中和區景平路167號",
  "animal_hospital_license": "北府畜醫業字第102號",
  "administrator": "劉金鴻",
  "veterinarian_license": "新北獸師執字第203號",
  "twd97x": 301714.7,
  "twd97y": 2765028.28,
  "wgs84ax": 121.512295,
  "wgs84ay": 24.992353
 },
 {
  "tel": "2998-8577",
  "name": "宏明動物醫院",
  "zip": 242020,
  "address": "新北市新莊區中港路398號",
  "animal_hospital_license": "北府畜醫業字第103號",
  "administrator": "王文典",
  "veterinarian_license": "新北獸師執字第007號",
  "twd97x": 295638.77,
  "twd97y": 2771371.67,
  "wgs84ax": 121.452317,
  "wgs84ay": 25.049816
 },
 {
  "tel": "2211-8890",
  "name": "來安動物醫院",
  "zip": 231071,
  "address": "新北市新店區安康路2段115之1號",
  "animal_hospital_license": "北府畜醫業字第117號",
  "administrator": "黃呈超",
  "veterinarian_license": "新北獸師執字第087號",
  "twd97x": 301756.74,
  "twd97y": 2761625,
  "wgs84ax": 121.512584,
  "wgs84ay": 24.961626
 },
 {
  "tel": "2681-1198",
  "name": "慈輝動物醫院",
  "zip": 238005,
  "address": "新北市樹林區鎮前街144號",
  "animal_hospital_license": "北府畜醫業字第118號",
  "administrator": "簡宏仲",
  "veterinarian_license": "新北獸師執字第211號",
  "twd97x": 292855.12,
  "twd97y": 2764783.85,
  "wgs84ax": 121.424524,
  "wgs84ay": 24.990422
 },
 {
  "tel": "2256-3107",
  "name": "維安動物醫院",
  "zip": 220010,
  "address": "新北市板橋區四維路174-3號",
  "animal_hospital_license": "北府畜醫業字第123號",
  "administrator": "李政道",
  "veterinarian_license": "新北獸師執字第151號",
  "twd97x": 296882.79,
  "twd97y": 2768793.35,
  "wgs84ax": 121.464558,
  "wgs84ay": 25.026501
 },
 {
  "tel": "2971-9531",
  "name": "佳佳獸醫院",
  "zip": 241014,
  "address": "新北市三重區重陽路1段20巷4號",
  "animal_hospital_license": "北府畜醫業字第132號",
  "administrator": "蕭雅玲",
  "veterinarian_license": "新北獸師執字第159號",
  "twd97x": 299075.57,
  "twd97y": 2772184.59,
  "wgs84ax": 121.486406,
  "wgs84ay": 25.057048
 },
 {
  "tel": "2688-0439",
  "name": "展鵬獸醫院",
  "zip": 238028,
  "address": "新北市樹林區中正路757號",
  "animal_hospital_license": "北府畜醫業字第135號",
  "administrator": "陳春輝",
  "veterinarian_license": "新北獸師執字第068號",
  "twd97x": 291416.91,
  "twd97y": 2767538.79,
  "wgs84ax": 121.41036,
  "wgs84ay": 25.015334
 },
 {
  "tel": "2221-4527",
  "name": "寵愛家畜醫院",
  "zip": 235034,
  "address": "新北市中和區連城路409號",
  "animal_hospital_license": "北府畜醫業字第142號",
  "administrator": "邱堅山",
  "veterinarian_license": "新北獸佐執字第040號",
  "twd97x": 299052.14,
  "twd97y": 2765431.95,
  "wgs84ax": 121.485934,
  "wgs84ay": 24.996086
 },
 {
  "tel": "2267-7373",
  "name": "王動物醫院",
  "zip": 236036,
  "address": "新北市土城區中央路3段141-7號",
  "animal_hospital_license": "北府畜醫業字第143號",
  "administrator": "王裕君",
  "veterinarian_license": "新北獸師執字第229號",
  "twd97x": 293737.8,
  "twd97y": 2762000.04,
  "wgs84ax": 121.43318,
  "wgs84ay": 24.965264
 },
 {
  "tel": "2258-1755",
  "name": "祐康獸醫院",
  "zip": 220002,
  "address": "新北市板橋區文化路1段140號",
  "animal_hospital_license": "北府畜醫業字第146號",
  "administrator": "蔡志鴻",
  "veterinarian_license": "新北獸佐執字第023號",
  "twd97x": 296968.42,
  "twd97y": 2767950.02,
  "wgs84ax": 121.465378,
  "wgs84ay": 25.018885
 },
 {
  "tel": "2847-9181",
  "name": "信安家畜醫院",
  "zip": 247029,
  "address": "新北市蘆洲區中正路142號",
  "animal_hospital_license": "北府畜醫業字第147號",
  "administrator": "林信義",
  "veterinarian_license": "新北獸師執字第217號",
  "twd97x": 297314.95,
  "twd97y": 2775306.08,
  "wgs84ax": 121.469064,
  "wgs84ay": 25.085285
 },
 {
  "tel": "2277-5160",
  "name": "山盟動物醫院",
  "zip": 242044,
  "address": "新北市新莊區復興路2段90號",
  "animal_hospital_license": "北府畜醫業字第148號",
  "administrator": "翁嘉男",
  "veterinarian_license": "新北獸師執字第098號",
  "twd97x": 296001.94,
  "twd97y": 2770750.01,
  "wgs84ax": 121.455895,
  "wgs84ay": 25.044193
 },
 {
  "tel": "2280-3059",
  "name": "三和動物醫院",
  "zip": 241082,
  "address": "新北市三重區三和路4段215巷13號",
  "animal_hospital_license": "北府畜醫業字第155號",
  "administrator": "陳錦榮",
  "veterinarian_license": "新北獸師執字第008號",
  "twd97x": 298674.3,
  "twd97y": 2774714.46,
  "wgs84ax": 121.482519,
  "wgs84ay": 25.0799
 },
 {
  "tel": "2277-9099",
  "name": "杏福獸醫院",
  "zip": 242022,
  "address": "新北市新莊區幸福路73號",
  "animal_hospital_license": "北府畜醫業字第161號",
  "administrator": "吳滄淙",
  "veterinarian_license": "新北獸佐執字第018號",
  "twd97x": 296105.43,
  "twd97y": 2771319.74,
  "wgs84ax": 121.45694,
  "wgs84ay": 25.049333
 },
 {
  "tel": "2969-5866",
  "name": "板新動物醫院",
  "zip": 220519,
  "address": "新北市板橋區中正路332-11號",
  "animal_hospital_license": "北府畜醫業字第168號",
  "administrator": "謝騰騫",
  "veterinarian_license": "新北獸佐執字第065號",
  "twd97x": 295859.75,
  "twd97y": 2768415.43,
  "wgs84ax": 121.454408,
  "wgs84ay": 25.023121
 },
 {
  "tel": "2911-9199",
  "name": "弘安獸醫院",
  "zip": 231007,
  "address": "新北市新店區北新路3段146號",
  "animal_hospital_license": "北縣獸醫業字第6號",
  "administrator": "陳霙廷",
  "veterinarian_license": "新北獸佐執字第006號",
  "twd97x": 304677.83,
  "twd97y": 2763932.25,
  "wgs84ax": 121.541603,
  "wgs84ay": 24.982354
 },
 {
  "tel": "2962-2560",
  "name": "台安動物醫院",
  "zip": 220739,
  "address": "新北市板橋區三民路2段204-2號",
  "animal_hospital_license": "北縣獸醫業字第10號",
  "administrator": "周國政",
  "veterinarian_license": "新北獸師執字第016號",
  "twd97x": 298319.87,
  "twd97y": 2767226.87,
  "wgs84ax": 121.478743,
  "wgs84ay": 25.012314
 },
 {
  "tel": "2261-1148",
  "name": "山群動物醫院",
  "zip": 236005,
  "address": "新北市土城區金城路3段135號",
  "animal_hospital_license": "北縣獸醫業字第11號",
  "administrator": "廖進財",
  "veterinarian_license": "新北獸佐執字第014號",
  "twd97x": 297254.71,
  "twd97y": 2764546,
  "wgs84ax": 121.468098,
  "wgs84ay": 24.988144
 },
 {
  "tel": "2211-9881",
  "name": "安康動物醫院",
  "zip": 231046,
  "address": "新北市新店區安成街42-1號",
  "animal_hospital_license": "北縣獸醫業字第13號",
  "administrator": "周浩民",
  "veterinarian_license": "新北獸師執字第019號",
  "twd97x": 301467.46,
  "twd97y": 2761605,
  "wgs84ax": 121.509718,
  "wgs84ay": 24.961456
 },
 {
  "tel": "2664-3865",
  "name": "深坑動物醫院",
  "zip": 222003,
  "address": "新北市深坑區北深路2段82號",
  "animal_hospital_license": "北縣獸醫業字第14號",
  "administrator": "張孝元",
  "veterinarian_license": "新北獸師執字第020號",
  "twd97x": 312334.72,
  "twd97y": 2766321.2,
  "wgs84ax": 121.617552,
  "wgs84ay": 25.003626
 },
 {
  "tel": "2957-3534",
  "name": "中信動物醫院",
  "zip": 220059,
  "address": "新北市板橋區信義路188號",
  "animal_hospital_license": "北縣獸醫業字第16號",
  "administrator": "林哲明",
  "veterinarian_license": "新北獸師執字第022號",
  "twd97x": 296392.7,
  "twd97y": 2764884.52,
  "wgs84ax": 121.45957,
  "wgs84ay": 24.991227
 },
 {
  "tel": "823-16021",
  "name": "皮皮動物醫院",
  "zip": 234605,
  "address": "新北市永和區保生路22巷12號",
  "animal_hospital_license": "北縣獸醫業字第17號",
  "administrator": "林祥坦",
  "veterinarian_license": "新北獸師執字第024號",
  "twd97x": 301225.75,
  "twd97y": 2766784.38,
  "wgs84ax": 121.507516,
  "wgs84ay": 25.008223
 },
 {
  "tel": "2911-1193",
  "name": "新店獸醫院",
  "zip": 231002,
  "address": "新北市新店區環河路15號",
  "animal_hospital_license": "北縣獸醫業字第18號",
  "administrator": "葉俊龍",
  "veterinarian_license": "新北獸師執字第026號",
  "twd97x": 304297.69,
  "twd97y": 2761595.63,
  "wgs84ax": 121.537746,
  "wgs84ay": 24.961272
 },
 {
  "tel": "2258-3540",
  "name": "中心動物醫院",
  "zip": 220033,
  "address": "新北市板橋區新海路30號",
  "animal_hospital_license": "北縣獸醫業字第19號",
  "administrator": "張肇先",
  "veterinarian_license": "新北獸師執字第027號",
  "twd97x": 296656.33,
  "twd97y": 2768208.76,
  "wgs84ax": 121.462294,
  "wgs84ay": 25.02123
 },
 {
  "tel": "2924-1658",
  "name": "中山家畜醫院",
  "zip": 234017,
  "address": "新北市永和區中山路1段29號",
  "animal_hospital_license": "北縣獸醫業字第20號",
  "administrator": "黃品翰",
  "veterinarian_license": "新北獸師執字第049號",
  "twd97x": 301819.64,
  "twd97y": 2767030.22,
  "wgs84ax": 121.513409,
  "wgs84ay": 25.010423
 },
 {
  "tel": "2965-0238",
  "name": "尚德動物醫院",
  "zip": 220050,
  "address": "新北市板橋區南雅西路2段9號",
  "animal_hospital_license": "北縣獸醫業字第21號",
  "administrator": "羅章榮",
  "veterinarian_license": "新北獸師執字第050號",
  "twd97x": 295714.7,
  "twd97y": 2766884.05,
  "wgs84ax": 121.45292,
  "wgs84ay": 25.0093
 },
 {
  "tel": "2848-9283",
  "name": "忠正動物醫院",
  "zip": 247032,
  "address": "新北市蘆洲區中正路277號",
  "animal_hospital_license": "北縣獸醫業字第23號",
  "administrator": "蔡勝祥",
  "veterinarian_license": "新北獸師執字第054號",
  "twd97x": 297102.96,
  "twd97y": 2775578.84,
  "wgs84ax": 121.466972,
  "wgs84ay": 25.087754
 },
 {
  "tel": "2296-1298",
  "name": "泰山動物醫院",
  "zip": 243086,
  "address": "新北市泰山區明志路1段468號",
  "animal_hospital_license": "北縣獸醫業字第24號",
  "administrator": "趙盧杰",
  "veterinarian_license": "新北獸師執字第055號",
  "twd97x": 293434.72,
  "twd97y": 2771967.01,
  "wgs84ax": 121.430492,
  "wgs84ay": 25.055256
 },
 {
  "tel": "2917-3512",
  "name": "高登動物醫院",
  "zip": 231013,
  "address": "新北市新店區三民路106號",
  "animal_hospital_license": "北縣獸醫業字第25號",
  "administrator": "翁旭家",
  "veterinarian_license": "新北獸師執字第056號",
  "twd97x": 303935.98,
  "twd97y": 2762996.25,
  "wgs84ax": 121.534219,
  "wgs84ay": 24.97393
 },
 {
  "tel": "2643-1768",
  "name": "惠明獸醫院",
  "zip": 221034,
  "address": "新北市汐止區大同路2段434號",
  "animal_hospital_license": "北縣獸醫業字第28號(補)",
  "administrator": "盧銘章",
  "veterinarian_license": "新北獸佐執字第025號（補）",
  "twd97x": 316513.75,
  "twd97y": 2773373.12,
  "wgs84ax": 121.659292,
  "wgs84ay": 25.067111
 },
 {
  "tel": "2692-3288",
  "name": "宏昕動物醫院",
  "zip": 221020,
  "address": "新北市汐止區明峰街129號之1",
  "animal_hospital_license": "北縣獸醫業字第38號(補)",
  "administrator": "郭志宏",
  "veterinarian_license": "新北獸師執字第075號",
  "twd97x": 313608.88,
  "twd97y": 2773753.79,
  "wgs84ax": 121.630518,
  "wgs84ay": 25.070673
 },
 {
  "tel": "8991-7815",
  "name": "佳護動物醫院",
  "zip": 242037,
  "address": "新北市新莊區福壽街212號",
  "animal_hospital_license": "北縣獸醫業字第40號",
  "administrator": "楊永煌",
  "veterinarian_license": "新北獸師執字第092號",
  "twd97x": 296221.52,
  "twd97y": 2771851.7,
  "wgs84ax": 121.458108,
  "wgs84ay": 25.054132
 },
 {
  "tel": "2668-7542",
  "name": "山佳動物醫院",
  "zip": 238012,
  "address": "新北市樹林區中山路3段77號",
  "animal_hospital_license": "北縣獸醫業字第43號",
  "administrator": "宋光雄",
  "veterinarian_license": "新北獸佐執字第030號",
  "twd97x": 290429.37,
  "twd97y": 2763052.34,
  "wgs84ax": 121.400445,
  "wgs84ay": 24.974856
 },
 {
  "tel": "2243-2166",
  "name": "和生動物醫院",
  "zip": 235035,
  "address": "新北市中和區連城路273號",
  "animal_hospital_license": "北縣獸醫業字第44號",
  "administrator": "簡奉賢",
  "veterinarian_license": "新北獸師執字第110號",
  "twd97x": 299529.87,
  "twd97y": 2765448.46,
  "wgs84ax": 121.490667,
  "wgs84ay": 24.996219
 },
 {
  "tel": "2693-4809",
  "name": "嘉德動物醫院",
  "zip": 221014,
  "address": "新北市汐止區福德1路206巷1號",
  "animal_hospital_license": "北縣獸醫業字第49號",
  "administrator": "盧安國",
  "veterinarian_license": "新北獸師執字第132號",
  "twd97x": 314020.3,
  "twd97y": 2773169.02,
  "wgs84ax": 121.634569,
  "wgs84ay": 25.065376
 },
 {
  "tel": "2681-1860",
  "name": "家德動物醫院",
  "zip": 238008,
  "address": "新北市樹林區文化街100號",
  "animal_hospital_license": "北縣獸醫業字第50號",
  "administrator": "蘇永順",
  "veterinarian_license": "新北獸師執字第136號",
  "twd97x": 292065.12,
  "twd97y": 2764658.72,
  "wgs84ax": 121.416695,
  "wgs84ay": 24.989315
 },
 {
  "tel": "2980-8154",
  "name": "民生動物醫院",
  "zip": 241045,
  "address": "新北市三重區正義北路296號",
  "animal_hospital_license": "北縣獸醫業字第53號",
  "administrator": "章焜程",
  "veterinarian_license": "新北獸師執字第156號",
  "twd97x": 299980.15,
  "twd97y": 2773577.78,
  "wgs84ax": 121.495422,
  "wgs84ay": 25.069596
 },
 {
  "tel": "2920-1883",
  "name": "延吉動物醫院",
  "zip": 234027,
  "address": "新北市永和區永貞路82號",
  "animal_hospital_license": "北縣獸醫業字第57號",
  "administrator": "陳俊傑",
  "veterinarian_license": "新北獸師執字第167號",
  "twd97x": 302497.36,
  "twd97y": 2766449.4,
  "wgs84ax": 121.520101,
  "wgs84ay": 25.005156
 },
 {
  "tel": "2947-5505",
  "name": "景新動物醫院",
  "zip": 235076,
  "address": "新北市中和區景新街473號",
  "animal_hospital_license": "北縣獸醫業字第66號",
  "administrator": "胡世雄",
  "veterinarian_license": "新北獸師執字第179號",
  "twd97x": 301844.26,
  "twd97y": 2764535.07,
  "wgs84ax": 121.513559,
  "wgs84ay": 24.987896
 },
 {
  "tel": "2980-4982",
  "name": "愛生動物醫院",
  "zip": 241061,
  "address": "新北市三重區自強路4段107號",
  "animal_hospital_license": "北縣獸醫業字第68號",
  "administrator": "吳宗翰",
  "veterinarian_license": "新北獸師執字第599號",
  "twd97x": 299600.24,
  "twd97y": 2774712.49,
  "wgs84ax": 121.491697,
  "wgs84ay": 25.079853
 },
 {
  "tel": "2909-0833",
  "name": "泰林動物醫院",
  "zip": 243079,
  "address": "新北市泰山區楓江路21號",
  "animal_hospital_license": "北縣獸醫業字第69號",
  "administrator": "張開運",
  "veterinarian_license": "新北獸師執字第182號",
  "twd97x": 293791.71,
  "twd97y": 2772774.01,
  "wgs84ax": 121.434056,
  "wgs84ay": 25.062531
 },
 {
  "tel": "2681-1324",
  "name": "馥御動物醫院",
  "zip": 238004,
  "address": "新北市樹林區中山路1段201號",
  "animal_hospital_license": "北縣獸醫業字第72號",
  "administrator": "李建源",
  "veterinarian_license": "新北獸師執字第187號",
  "twd97x": 292519.36,
  "twd97y": 2764457.7,
  "wgs84ax": 121.421188,
  "wgs84ay": 24.987487
 },
 {
  "tel": "2918-1850",
  "name": "康和動物醫院",
  "zip": 231024,
  "address": "新北市新店區中正路429號",
  "animal_hospital_license": "北縣獸醫業字第074號",
  "administrator": "黃雪凌",
  "veterinarian_license": "新北獸師執字第190號",
  "twd97x": 303919.32,
  "twd97y": 2763454.71,
  "wgs84ax": 121.534072,
  "wgs84ay": 24.97807
 },
 {
  "tel": "2923-1301",
  "name": "慶生動物醫院",
  "zip": 234044,
  "address": "新北市永和區得和路261號",
  "animal_hospital_license": "北縣獸醫業字第80號",
  "administrator": "曹思源",
  "veterinarian_license": "新北獸師執字第002號",
  "twd97x": 302634.53,
  "twd97y": 2765875.18,
  "wgs84ax": 121.521438,
  "wgs84ay": 24.999967
 },
 {
  "tel": "8295-8237",
  "name": "蓮心動物醫院",
  "zip": 248006,
  "address": "新北市五股區工商路40號",
  "animal_hospital_license": "北縣獸醫業字第82號",
  "administrator": "李維淵",
  "veterinarian_license": "新北獸師執字第201號",
  "twd97x": 294323.92,
  "twd97y": 2775140.43,
  "wgs84ax": 121.439407,
  "wgs84ay": 25.08388
 },
 {
  "tel": "2928-7877",
  "name": "泰安動物醫院",
  "zip": 234027,
  "address": "新北市永和區永貞路83號",
  "animal_hospital_license": "北縣獸醫業字第86號",
  "administrator": "簡子寧",
  "veterinarian_license": "新北獸師執字第220號",
  "twd97x": 302335.23,
  "twd97y": 2766357.63,
  "wgs84ax": 121.518492,
  "wgs84ay": 25.004333
 },
 {
  "tel": "2848-0148",
  "name": "雅旺動物醫院",
  "zip": 247005,
  "address": "新北市蘆洲區民族路522號",
  "animal_hospital_license": "北縣獸醫業字第87號",
  "administrator": "彭志誠",
  "veterinarian_license": "新北獸師執字第060號",
  "twd97x": 297311.15,
  "twd97y": 2775830.94,
  "wgs84ax": 121.469044,
  "wgs84ay": 25.090023
 },
 {
  "tel": "8992-7273",
  "name": "牧平動物醫院",
  "zip": 242011,
  "address": "新北市新莊區公園路122號",
  "animal_hospital_license": "北縣獸醫業字第94號",
  "administrator": "葉張平",
  "veterinarian_license": "新北獸師執字第235號",
  "twd97x": 295570.74,
  "twd97y": 2770275.55,
  "wgs84ax": 121.451606,
  "wgs84ay": 25.039923
 },
 {
  "tel": "8285-0255",
  "name": "增安動物醫院",
  "zip": 247020,
  "address": "新北市蘆洲區中山一路169號",
  "animal_hospital_license": "北縣獸醫業字第96號",
  "administrator": "劉明鑫",
  "veterinarian_license": "新北獸師執字第193號",
  "twd97x": 297924.33,
  "twd97y": 2774879.32,
  "wgs84ax": 121.47509,
  "wgs84ay": 25.081413
 },
 {
  "tel": "2901-6220",
  "name": "全祐獸醫院",
  "zip": 242092,
  "address": "新北市新莊區壽山路4號",
  "animal_hospital_license": "北縣獸醫業字第99號",
  "administrator": "陳專祐",
  "veterinarian_license": "新北獸師執字第239號",
  "twd97x": 292522.42,
  "twd97y": 2769033.39,
  "wgs84ax": 121.42136,
  "wgs84ay": 25.028797
 },
 {
  "tel": "2622-5750",
  "name": "上哲動物醫院",
  "zip": 251007,
  "address": "新北市新北市淡水區中正東路3巷2號",
  "animal_hospital_license": "北縣獸醫業字第101號",
  "administrator": "王昌瑋",
  "veterinarian_license": "新北獸師執字第242號",
  "twd97x": 0,
  "twd97y": 0
 },
 {
  "tel": "2629-7384",
  "name": "黃動物醫院",
  "zip": 251031,
  "address": "新北市淡水區北新路31號",
  "animal_hospital_license": "北縣獸醫業字第102號",
  "administrator": "黃士璞",
  "veterinarian_license": "新北獸師執字第240號",
  "twd97x": 294870.5,
  "twd97y": 2785550.94,
  "wgs84ax": 121.445166,
  "wgs84ay": 25.177849
 },
 {
  "tel": "2240-8865",
  "name": "仁心動物醫院",
  "zip": 235088,
  "address": "新北市中和區南華路60號",
  "animal_hospital_license": "北縣獸醫業字第104號",
  "administrator": "連永川",
  "veterinarian_license": "新北獸師執字第244號",
  "twd97x": 300938.31,
  "twd97y": 2765544,
  "wgs84ax": 121.504623,
  "wgs84ay": 24.997035
 },
 {
  "tel": "2270-0825",
  "name": "佳生動物醫院",
  "zip": 236008,
  "address": "新北市土城區學府路1段60號",
  "animal_hospital_license": "北縣獸醫業字第105號",
  "administrator": "張仁川",
  "veterinarian_license": "新北獸師執字第247號",
  "twd97x": 296151.82,
  "twd97y": 2764577.17,
  "wgs84ax": 121.457174,
  "wgs84ay": 24.98846
 },
 {
  "tel": "2273-9256",
  "name": "福德獸醫院",
  "zip": 236027,
  "address": "新北市土城區中央路1段228號",
  "animal_hospital_license": "北縣獸醫業字第109號",
  "administrator": "段輝煌",
  "veterinarian_license": "新北獸師執字第255號",
  "twd97x": 294899.08,
  "twd97y": 2764216.31,
  "wgs84ax": 121.444753,
  "wgs84ay": 24.985239
 },
 {
  "tel": "2277-6711",
  "name": "聖安動物醫院",
  "zip": 242017,
  "address": "新北市新莊區中港路256號",
  "animal_hospital_license": "北縣獸醫業字第114號",
  "administrator": "姚正峰",
  "veterinarian_license": "新北獸師執字第276號",
  "twd97x": 295783.18,
  "twd97y": 2770676.55,
  "wgs84ax": 121.453725,
  "wgs84ay": 25.043536
 },
 {
  "tel": "2989-0089",
  "name": "翰林獸醫院",
  "zip": 241029,
  "address": "新北市三重區三民街130號",
  "animal_hospital_license": "北縣獸醫業字第115號",
  "administrator": "陳宗田",
  "veterinarian_license": "新北獸佐執字第051號",
  "twd97x": 298727.3,
  "twd97y": 2773055.11,
  "wgs84ax": 121.482985,
  "wgs84ay": 25.064918
 },
 {
  "tel": "2622-3824",
  "name": "聖愛動物醫院",
  "zip": 251018,
  "address": "新北市淡水區中正東路6號",
  "animal_hospital_license": "北縣獸醫業字第116號",
  "administrator": "余基政",
  "veterinarian_license": "新北獸師執字第089號",
  "twd97x": 295109.19,
  "twd97y": 2784360.21,
  "wgs84ax": 121.447495,
  "wgs84ay": 25.167093
 },
 {
  "tel": "2983-8983",
  "name": "宏昇家畜醫院",
  "zip": 241044,
  "address": "新北市三重區正義北路307號",
  "animal_hospital_license": "北縣獸醫業字第117號",
  "administrator": "王志朗",
  "veterinarian_license": "新北獸佐執字第016號",
  "twd97x": 299876.11,
  "twd97y": 2773749.61,
  "wgs84ax": 121.494397,
  "wgs84ay": 25.071151
 },
 {
  "tel": "2678-2718",
  "name": "鶯歌獸醫院",
  "zip": 239016,
  "address": "新北市鶯歌區文化路383號",
  "animal_hospital_license": "北縣獸醫業字第120號",
  "administrator": "葉一仙",
  "veterinarian_license": "新北獸師執字第232號",
  "twd97x": 285587.86,
  "twd97y": 2760357.15,
  "wgs84ax": 121.352422,
  "wgs84ay": 24.950645
 },
 {
  "tel": "8926-7681",
  "name": "竹林動物醫院",
  "zip": 234025,
  "address": "新北市永和區竹林路133-2號",
  "animal_hospital_license": "北縣獸醫業字第123號",
  "administrator": "吳孟才",
  "veterinarian_license": "新北獸師執字第298號",
  "twd97x": 302514.83,
  "twd97y": 2767081.33,
  "wgs84ax": 121.520299,
  "wgs84ay": 25.01086
 },
 {
  "tel": "2223-9440",
  "name": "承大動物醫院",
  "zip": 235032,
  "address": "新北市中和區員山路77巷11弄8號",
  "animal_hospital_license": "北縣獸醫業字第125號",
  "administrator": "馬祥勝",
  "veterinarian_license": "新北獸佐執字第055號",
  "twd97x": 298461.06,
  "twd97y": 2765163.82,
  "wgs84ax": 121.480069,
  "wgs84ay": 24.993684
 },
 {
  "tel": "2994-4940",
  "name": "永吉家畜醫院",
  "zip": 242004,
  "address": "新北市新莊區新泰路158號",
  "animal_hospital_license": "北縣獸醫業字第127號",
  "administrator": "李坤昇",
  "veterinarian_license": "新北獸師執字第158號",
  "twd97x": 295173.46,
  "twd97y": 2770001.06,
  "wgs84ax": 121.44766,
  "wgs84ay": 25.037456
 },
 {
  "tel": "2993-4631",
  "name": "丘原動物醫院",
  "zip": 242012,
  "address": "新北市新莊區公園路160號",
  "animal_hospital_license": "北縣獸醫業字第130號",
  "administrator": "邱俊源",
  "veterinarian_license": "新北獸師執字第228號",
  "twd97x": 295756.2,
  "twd97y": 2770295.95,
  "wgs84ax": 121.453445,
  "wgs84ay": 25.040101
 },
 {
  "tel": "3233-4027",
  "name": "同安動物醫院",
  "zip": 234017,
  "address": "新北市永和區中山路1段233號",
  "animal_hospital_license": "北縣獸醫業字第131號",
  "administrator": "姚聖林",
  "veterinarian_license": "新北獸師執字第305號",
  "twd97x": 301261.83,
  "twd97y": 2766722.76,
  "wgs84ax": 121.507871,
  "wgs84ay": 25.007666
 },
 {
  "tel": "2601-4638",
  "name": "佳林動物醫院",
  "zip": 244003,
  "address": "新北市林口區西林村竹林路60號",
  "animal_hospital_license": "北縣獸醫業字第132號",
  "administrator": "駱清波",
  "veterinarian_license": "新北獸佐執字第004號",
  "twd97x": 0,
  "twd97y": 0
 },
 {
  "tel": "2951-1301",
  "name": "佳安動物醫院",
  "zip": 220055,
  "address": "新北市板橋區四川路1段234號",
  "animal_hospital_license": "北縣獸醫業字第134號",
  "administrator": "羅有論",
  "veterinarian_license": "新北獸師執字第142號",
  "twd97x": 296350.62,
  "twd97y": 2766055.48,
  "wgs84ax": 121.459193,
  "wgs84ay": 25.0018
 },
 {
  "tel": "2250-2000",
  "name": "雙十動物醫院",
  "zip": 220018,
  "address": "新北市板橋區雙十路2段4號",
  "animal_hospital_license": "北縣獸醫業字第136號",
  "administrator": "沈志明",
  "veterinarian_license": "新北獸師執字第312號",
  "twd97x": 298163.87,
  "twd97y": 2768689.58,
  "wgs84ax": 121.477248,
  "wgs84ay": 25.025524
 },
 {
  "tel": "2276-9427",
  "name": "新泰動物醫院",
  "zip": 242006,
  "address": "新北市新莊區新泰路402號",
  "animal_hospital_license": "北縣獸醫業字第137號",
  "administrator": "吳俊儒",
  "veterinarian_license": "新北獸佐執字第034號",
  "twd97x": 294792.31,
  "twd97y": 2770712.55,
  "wgs84ax": 121.443906,
  "wgs84ay": 25.043891
 },
 {
  "tel": "8953-3055",
  "name": "隆安動物醫院",
  "zip": 220065,
  "address": "新北市板橋區忠孝路79號",
  "animal_hospital_license": "北縣獸醫業字第138號",
  "administrator": "姚勝隆",
  "veterinarian_license": "新北獸佐執字第059號",
  "twd97x": 296631.31,
  "twd97y": 2766107.31,
  "wgs84ax": 121.461975,
  "wgs84ay": 25.002259
 },
 {
  "tel": "2914-2518",
  "name": "惠安犬貓醫院",
  "zip": 231007,
  "address": "新北市新店區北新路2段94號",
  "animal_hospital_license": "北縣獸醫業字第140號",
  "administrator": "陳怡君",
  "veterinarian_license": "新北獸師執字第314號",
  "twd97x": 304832.89,
  "twd97y": 2762908.16,
  "wgs84ax": 121.543099,
  "wgs84ay": 24.973103
 },
 {
  "tel": "2968-7110",
  "name": "五洲獸醫院",
  "zip": 220044,
  "address": "新北市板橋區民權路250號",
  "animal_hospital_license": "北縣獸醫業字第145號",
  "administrator": "鄭馥璇",
  "veterinarian_license": "新北獸師執字第329號",
  "twd97x": 296268.08,
  "twd97y": 2767495.35,
  "wgs84ax": 121.458423,
  "wgs84ay": 25.014802
 },
 {
  "tel": "2201-2881",
  "name": "杰輝家畜醫院",
  "zip": 242073,
  "address": "新北市新莊區西盛街159號",
  "animal_hospital_license": "北縣獸醫業字第150號",
  "administrator": "施斌烈",
  "veterinarian_license": "新北獸佐執字第061號",
  "twd97x": 293223.42,
  "twd97y": 2767828.18,
  "wgs84ax": 121.428268,
  "wgs84ay": 25.017896
 },
 {
  "tel": "8245-3639",
  "name": "左岸動物醫院",
  "zip": 235025,
  "address": "新北市中和區福祥路129號",
  "animal_hospital_license": "北縣獸醫業字第151號",
  "administrator": "邱顯傑",
  "veterinarian_license": "新北獸師執字第344號",
  "twd97x": 300321.98,
  "twd97y": 2766650.68,
  "wgs84ax": 121.498558,
  "wgs84ay": 25.007047
 },
 {
  "tel": "2258-0809",
  "name": "板橋台大動物醫院",
  "zip": 220029,
  "address": "新北市板橋區文化路2段11號",
  "animal_hospital_license": "北縣獸醫業字第153號",
  "administrator": "卓念真",
  "veterinarian_license": "新北獸師執字第152號",
  "twd97x": 297284.11,
  "twd97y": 2768557.76,
  "wgs84ax": 121.468526,
  "wgs84ay": 25.024362
 },
 {
  "tel": "2969-8780",
  "name": "金妞妞動物醫院",
  "zip": 220044,
  "address": "新北市板橋區民權路232號",
  "animal_hospital_license": "北縣獸醫業字第157號",
  "administrator": "侯金蘭",
  "veterinarian_license": "新北獸師執字第036號",
  "twd97x": 296286.73,
  "twd97y": 2767458.7,
  "wgs84ax": 121.458607,
  "wgs84ay": 25.01447
 },
 {
  "tel": "2272-4481",
  "name": "亞麥動物醫院",
  "zip": 220042,
  "address": "新北市板橋區國光路77號",
  "animal_hospital_license": "北縣獸醫業字第158號",
  "administrator": "林建群",
  "veterinarian_license": "新北獸師執字第352號",
  "twd97x": 296393.72,
  "twd97y": 2767881.14,
  "wgs84ax": 121.459681,
  "wgs84ay": 25.018281
 },
 {
  "tel": "2910-1354",
  "name": "誠恩動物醫院",
  "zip": 231038,
  "address": "新北市新店區民族路32號",
  "animal_hospital_license": "北縣獸醫業字第160號",
  "administrator": "謝其焜",
  "veterinarian_license": "新北獸師執字第364號",
  "twd97x": 304589.4,
  "twd97y": 2763544.51,
  "wgs84ax": 121.540712,
  "wgs84ay": 24.978857
 },
 {
  "tel": "8228-7360",
  "name": "近易動物醫院",
  "zip": 235019,
  "address": "新北市中和區連城路428巷6弄9號",
  "animal_hospital_license": "北縣獸醫業字第161號",
  "administrator": "楊志鴻",
  "veterinarian_license": "新北獸佐執字第062號",
  "twd97x": 298507.47,
  "twd97y": 2765375,
  "wgs84ax": 121.480536,
  "wgs84ay": 24.995589
 },
 {
  "tel": "2266-1075",
  "name": "大慶獸醫院",
  "zip": 236029,
  "address": "新北市土城區中華路1段22號",
  "animal_hospital_license": "北縣獸醫業字第162號",
  "administrator": "林明順",
  "veterinarian_license": "新北獸師執字第325號",
  "twd97x": 295172.19,
  "twd97y": 2764783.88,
  "wgs84ax": 121.447477,
  "wgs84ay": 24.990355
 },
 {
  "tel": "2248-0624",
  "name": "王朋動物醫院",
  "zip": 235038,
  "address": "新北市中和區連城路72號",
  "animal_hospital_license": "北縣獸醫業字第164號",
  "administrator": "王鵬程",
  "veterinarian_license": "新北獸師執字第204號",
  "twd97x": 300205.05,
  "twd97y": 2766020.26,
  "wgs84ax": 121.497376,
  "wgs84ay": 25.001359
 },
 {
  "tel": "2809-2293",
  "name": "哲生動物醫院",
  "zip": 251027,
  "address": "新北市淡水區民族路29巷40號",
  "animal_hospital_license": "北縣獸醫業字第170號",
  "administrator": "許昭文",
  "veterinarian_license": "新北獸師執字第378號",
  "twd97x": 296546.57,
  "twd97y": 2781035.21,
  "wgs84ax": 121.461641,
  "wgs84ay": 25.137031
 },
 {
  "tel": "2221-8798",
  "name": "五信動物醫院",
  "zip": 235019,
  "address": "新北市中和區連城路358號",
  "animal_hospital_license": "北縣獸醫業字第174號",
  "administrator": "陳大鈞",
  "veterinarian_license": "新北獸師執字第243號",
  "twd97x": 298663.59,
  "twd97y": 2765369.75,
  "wgs84ax": 121.482083,
  "wgs84ay": 24.995537
 },
 {
  "tel": "2957-1352",
  "name": "聖博獸醫院",
  "zip": 220064,
  "address": "新北市板橋區重慶路299號",
  "animal_hospital_license": "北縣獸醫業字第183號",
  "administrator": "陳穆村",
  "veterinarian_license": "新北獸佐執字第056號",
  "twd97x": 296813.3,
  "twd97y": 2765744.4,
  "wgs84ax": 121.463766,
  "wgs84ay": 24.998977
 },
 {
  "tel": "2808-5190",
  "name": "德艾動物醫院",
  "zip": 251020,
  "address": "新北市淡水區民生路8號",
  "animal_hospital_license": "北縣獸醫業字第184號(補)",
  "administrator": "李翰宗",
  "veterinarian_license": "新北獸師執字第630號",
  "twd97x": 296460.42,
  "twd97y": 2781117.64,
  "wgs84ax": 121.460789,
  "wgs84ay": 25.137778
 },
 {
  "tel": "8692-3655",
  "name": "貝斯特動物醫院",
  "zip": 221043,
  "address": "新北市汐止區新台五路2段28號",
  "animal_hospital_license": "北縣獸醫業字第185號",
  "administrator": "藍新文",
  "veterinarian_license": "新北獸師執字第399號",
  "twd97x": 316664.98,
  "twd97y": 2773158.46,
  "wgs84ax": 121.660781,
  "wgs84ay": 25.065166
 },
 {
  "tel": "2915-3597",
  "name": "中友犬貓專科醫院",
  "zip": 231022,
  "address": "新北市新店區中正路19號",
  "animal_hospital_license": "北縣獸醫業字第189號",
  "administrator": "鍾文進",
  "veterinarian_license": "新北獸佐執字第067號",
  "twd97x": 305062.01,
  "twd97y": 2762499.48,
  "wgs84ax": 121.545352,
  "wgs84ay": 24.969405
 },
 {
  "tel": "8660-8594",
  "name": "成蹊動物醫院",
  "zip": 234045,
  "address": "新北市永和區中正路474號",
  "animal_hospital_license": "北縣獸醫業字第194號",
  "administrator": "黃李傳",
  "veterinarian_license": "新北獸師執字第430號",
  "twd97x": 302235.09,
  "twd97y": 2766247.03,
  "wgs84ax": 121.517496,
  "wgs84ay": 25.003338
 },
 {
  "tel": "8966-2551",
  "name": "嘉棋動物醫院",
  "zip": 220058,
  "address": "新北市板橋區四川路2段115號",
  "animal_hospital_license": "北縣獸醫業字第196號",
  "administrator": "廖家慧",
  "veterinarian_license": "新北獸佐執字第066號",
  "twd97x": 295572.38,
  "twd97y": 2765212.05,
  "wgs84ax": 121.451455,
  "wgs84ay": 24.994209
 },
 {
  "tel": "2901-3230",
  "name": "安安動物醫院",
  "zip": 242049,
  "address": "新北市新莊區雙鳳路105號",
  "animal_hospital_license": "北縣獸醫業字第197號",
  "administrator": "蔡孟達",
  "veterinarian_license": "新北獸佐執字第069號",
  "twd97x": 291801.62,
  "twd97y": 2768949.26,
  "wgs84ax": 121.414215,
  "wgs84ay": 25.028058
 },
 {
  "tel": "2600-0989",
  "extension": 82,
  "name": "麗園動物醫院",
  "zip": 244019,
  "address": "新北市林口區文化1路1段119號",
  "animal_hospital_license": "北縣獸醫業字第199號",
  "administrator": "王中聖",
  "veterinarian_license": "新北獸師執字第448號",
  "twd97x": 287646.84,
  "twd97y": 2773736.72,
  "wgs84ax": 121.373176,
  "wgs84ay": 25.071388
 },
 {
  "tel": "2679-5662",
  "name": "旭安動物醫院",
  "zip": 239010,
  "address": "新北市鶯歌區中山路125號",
  "animal_hospital_license": "北縣獸醫業字第203號",
  "administrator": "呂順興",
  "veterinarian_license": "新北獸佐執字第072號",
  "twd97x": 285326.51,
  "twd97y": 2761051.3,
  "wgs84ax": 121.349852,
  "wgs84ay": 24.956918
 },
 {
  "tel": "2204-3333",
  "name": "銘德動物醫院",
  "zip": 242056,
  "address": "新北市新莊區後港一路14號",
  "animal_hospital_license": "北縣獸醫業字第205號",
  "administrator": "吳銘宏",
  "veterinarian_license": "新北獸師執字第464號",
  "twd97x": 292871.15,
  "twd97y": 2768709.56,
  "wgs84ax": 121.424805,
  "wgs84ay": 25.025864
 },
 {
  "tel": "2908-8772",
  "name": "快樂動物醫院",
  "zip": 242054,
  "address": "新北市新莊區福營路242號",
  "animal_hospital_license": "北縣獸醫業字第208號",
  "administrator": "林鈺倩",
  "veterinarian_license": "新北獸師執字第471號",
  "twd97x": 293045,
  "twd97y": 2769068.26,
  "wgs84ax": 121.426539,
  "wgs84ay": 25.029097
 },
 {
  "tel": "2261-2260",
  "name": "慈濟動物醫院",
  "zip": 236024,
  "address": "新北市土城區學成路100號",
  "animal_hospital_license": "北縣獸醫業字第210號",
  "administrator": "徐玟良",
  "veterinarian_license": "新北獸師執字第385號",
  "twd97x": 295443.14,
  "twd97y": 2764650.7,
  "wgs84ax": 121.450157,
  "wgs84ay": 24.989145
 },
 {
  "tel": "8921-1948",
  "name": "瑪雅動物醫院",
  "zip": 234021,
  "address": "新北市永和區中和路333號",
  "animal_hospital_license": "北縣獸醫業字第211號",
  "administrator": "詹朝棟",
  "veterinarian_license": "新北獸師執字第481號",
  "twd97x": 301217.45,
  "twd97y": 2765849.06,
  "wgs84ax": 121.507399,
  "wgs84ay": 24.99978
 },
 {
  "tel": "2993-1610",
  "name": "恆揚獸醫院",
  "zip": 242023,
  "address": "新北市新莊區幸福路904號",
  "animal_hospital_license": "北縣獸醫業字第215號",
  "administrator": "郭元順",
  "veterinarian_license": "新北獸佐執字第076號",
  "twd97x": 294655.24,
  "twd97y": 2771295.57,
  "wgs84ax": 121.442567,
  "wgs84ay": 25.049159
 },
 {
  "tel": "2921-8867",
  "name": "福林動物醫院",
  "zip": 235071,
  "address": "新北市中和區中安街230號",
  "animal_hospital_license": "北縣獸醫業字第216號",
  "administrator": "葉銘松",
  "veterinarian_license": "新北獸師執字第490號",
  "twd97x": 301706.12,
  "twd97y": 2765716.76,
  "wgs84ax": 121.512235,
  "wgs84ay": 24.998569
 },
 {
  "tel": "2285-0288",
  "name": "伊娃動物醫院",
  "zip": 247013,
  "address": "新北市蘆洲區永平街32巷12弄18號",
  "animal_hospital_license": "北縣獸醫業字第217號",
  "administrator": "趙沁梅",
  "veterinarian_license": "新北獸師執字第491號",
  "twd97x": 296370.33,
  "twd97y": 2775940.61,
  "wgs84ax": 121.459721,
  "wgs84ay": 25.091043
 },
 {
  "tel": "2223-4519",
  "name": "員山動物醫院",
  "zip": 235014,
  "address": "新北市中和區中山路2段577號",
  "animal_hospital_license": "北縣獸醫業字第218號",
  "administrator": "李家豪",
  "veterinarian_license": "新北獸師執字第015號",
  "twd97x": 298495.06,
  "twd97y": 2766489.65,
  "wgs84ax": 121.480452,
  "wgs84ay": 25.005652
 },
 {
  "tel": "8666-9595",
  "name": "康爾維動物醫院",
  "zip": 231046,
  "address": "新北市新店區安康路2段308號",
  "animal_hospital_license": "北縣獸醫業字第220號",
  "administrator": "黃孟博",
  "veterinarian_license": "新北獸師執字第454號",
  "twd97x": 301133.74,
  "twd97y": 2761260.56,
  "wgs84ax": 121.5064,
  "wgs84ay": 24.958357
 },
 {
  "tel": "2671-6119",
  "name": "三峽奇緣動物醫院",
  "zip": 237005,
  "address": "新北市三峽區中園街126之23號1樓及126之22號",
  "animal_hospital_license": "北縣獸醫業字第223號",
  "administrator": "曾伊徵",
  "veterinarian_license": "新北獸師執字第502號",
  "twd97x": 287058.75,
  "twd97y": 2757090.57,
  "wgs84ax": 121.3669,
  "wgs84ay": 24.921118
 },
 {
  "tel": "2621-0052",
  "name": "錫安動物醫院",
  "zip": 251616,
  "address": "新北市淡水區新市一路3段180號",
  "animal_hospital_license": "北縣獸醫業字第229號",
  "administrator": "柯慧美",
  "veterinarian_license": "新北獸師執字第353號",
  "twd97x": 295173.34,
  "twd97y": 2786099.01,
  "wgs84ax": 121.448189,
  "wgs84ay": 25.182788
 },
 {
  "tel": "2282-2332",
  "name": "家福動物醫院",
  "zip": 247037,
  "address": "新北市蘆洲區光華路157號",
  "animal_hospital_license": "北縣獸醫業字第231號",
  "administrator": "陳建志",
  "veterinarian_license": "新北獸佐執字第073號",
  "twd97x": 296940.48,
  "twd97y": 2774944.31,
  "wgs84ax": 121.465339,
  "wgs84ay": 25.08203
 },
 {
  "tel": "8951-1172",
  "name": "牧村動物醫院",
  "zip": 220077,
  "address": "新北市板橋區中山路2段28號",
  "animal_hospital_license": "北縣獸醫業字第233號",
  "administrator": "吳鴻儒",
  "veterinarian_license": "新北獸師執字第086號",
  "twd97x": 297707.46,
  "twd97y": 2767532.49,
  "wgs84ax": 121.472686,
  "wgs84ay": 25.015092
 },
 {
  "tel": "2687-5556",
  "name": "愛欣動物醫院",
  "zip": 238003,
  "address": "新北市樹林區樹德街5號",
  "animal_hospital_license": "北縣獸醫業字第235號",
  "administrator": "吳達敏",
  "veterinarian_license": "新北獸師執字第534號",
  "twd97x": 292689.88,
  "twd97y": 2764893.17,
  "wgs84ax": 121.422891,
  "wgs84ay": 24.991414
 },
 {
  "tel": "8295-2268",
  "name": "愛寶動物醫院",
  "zip": 248013,
  "address": "新北市五股區中興路4段49號",
  "animal_hospital_license": "北縣獸醫業字第237號",
  "administrator": "謝旻莉",
  "veterinarian_license": "新北獸師執字第316號",
  "twd97x": 294193.45,
  "twd97y": 2775022.99,
  "wgs84ax": 121.43811,
  "wgs84ay": 25.082824
 },
 {
  "tel": "8985-8011",
  "name": "自強動物醫院",
  "zip": 241061,
  "address": "新北市三重區自強路4段79號",
  "animal_hospital_license": "北縣獸醫業字第240號",
  "administrator": "張再興",
  "veterinarian_license": "新北獸師執字第543號",
  "twd97x": 299524.93,
  "twd97y": 2774623.79,
  "wgs84ax": 121.490948,
  "wgs84ay": 25.079054
 },
 {
  "tel": "2205-8674",
  "name": "榮星獸醫院",
  "zip": 242072,
  "address": "新北市新莊區四維路1號2樓",
  "animal_hospital_license": "北縣獸醫業字第242號",
  "administrator": "吳富彤",
  "veterinarian_license": "新北獸佐執字第083號",
  "twd97x": 292812.02,
  "twd97y": 2768647.93,
  "wgs84ax": 121.424217,
  "wgs84ay": 25.025309
 },
 {
  "tel": "2643-1960",
  "name": "眾新動物醫院",
  "zip": 221044,
  "address": "新北市汐止區新興路4號",
  "animal_hospital_license": "北縣獸醫業字第247號",
  "administrator": "盧平",
  "veterinarian_license": "新北獸師執字第565號",
  "twd97x": 316205.91,
  "twd97y": 2773132.65,
  "wgs84ax": 121.656229,
  "wgs84ay": 25.064954
 },
 {
  "tel": "8672-6119",
  "name": "北大奇緣動物醫院",
  "zip": 237006,
  "address": "新北市三峽區民生街2-2號",
  "animal_hospital_license": "北縣獸醫業字第248號",
  "administrator": "蔡長隆",
  "veterinarian_license": "新北獸師執字第574號",
  "twd97x": 288014.75,
  "twd97y": 2758856.93,
  "wgs84ax": 121.376414,
  "wgs84ay": 24.937042
 },
 {
  "tel": "2648-7669",
  "name": "新北動物醫院",
  "zip": 221034,
  "address": "新北市汐止區大同路2段456號",
  "animal_hospital_license": "北縣獸醫業字第249號",
  "administrator": "林建良",
  "veterinarian_license": "新北獸師執字第576號",
  "twd97x": 316591.62,
  "twd97y": 2773400.38,
  "wgs84ax": 121.660065,
  "wgs84ay": 25.067354
 },
 {
  "tel": "2983-5687",
  "name": "青青動物醫院",
  "zip": 241031,
  "address": "新北市三重區重新路3段31-3號",
  "animal_hospital_license": "北縣獸醫業字第252號",
  "administrator": "呂彥青",
  "veterinarian_license": "新北獸師執字第591號",
  "twd97x": 299838.98,
  "twd97y": 2772674.33,
  "wgs84ax": 121.49399,
  "wgs84ay": 25.061444
 },
 {
  "tel": "8665-5702",
  "name": "剛果動物醫院",
  "zip": 231027,
  "address": "新北市新店區中興路3段259號",
  "animal_hospital_license": "北縣獸醫業字第258號",
  "administrator": "邱新育",
  "veterinarian_license": "新北獸師執字第603號",
  "twd97x": 304744.14,
  "twd97y": 2764180.14,
  "wgs84ax": 121.54227,
  "wgs84ay": 24.984589
 },
 {
  "tel": "2943-3709",
  "name": "明佳動物醫院",
  "zip": 235071,
  "address": "新北市中和區宜安路125號",
  "animal_hospital_license": "北縣獸醫業字第259號",
  "administrator": "鄭宇光",
  "veterinarian_license": "新北獸師執字第610號",
  "twd97x": 301469.3,
  "twd97y": 2765659.13,
  "wgs84ax": 121.509887,
  "wgs84ay": 24.998056
 },
 {
  "tel": "2245-1691",
  "name": "名星動物醫院",
  "zip": 235037,
  "address": "新北市中和區景平路591號",
  "animal_hospital_license": "北縣獸醫業字第261號",
  "administrator": "張惠致",
  "veterinarian_license": "新北獸師執字第216號",
  "twd97x": 300204.93,
  "twd97y": 2765921.89,
  "wgs84ax": 121.497371,
  "wgs84ay": 25.000471
 },
 {
  "tel": "8953-9739",
  "name": "來來動物醫院",
  "zip": 235004,
  "address": "新北市中和區德光路29號",
  "animal_hospital_license": "北縣獸醫業字第269號",
  "administrator": "張康銘",
  "veterinarian_license": "新北獸師執字第640號",
  "twd97x": 297512.27,
  "twd97y": 2766321.56,
  "wgs84ax": 121.47071,
  "wgs84ay": 25.004166
 },
 {
  "tel": "2497-8928",
  "name": "愛馨動物醫院",
  "zip": 224006,
  "address": "新北市瑞芳區一坑路32-3號",
  "animal_hospital_license": "北縣獸醫業字第271號",
  "administrator": "何丞剛",
  "veterinarian_license": "新北獸師執字第658號",
  "twd97x": 331068.96,
  "twd97y": 2778096.2,
  "wgs84ax": 121.803834,
  "wgs84ay": 25.109037
 },
 {
  "tel": "2683-3122",
  "name": "台大文仁動物醫院",
  "zip": 220597,
  "address": "新北市板橋區篤行路3段18號",
  "animal_hospital_license": "北縣獸醫業字第272號",
  "administrator": "張峰瑞",
  "veterinarian_license": "新北獸師執字第669號",
  "twd97x": 293279.4,
  "twd97y": 2764441.82,
  "wgs84ax": 121.428717,
  "wgs84ay": 24.987322
 },
 {
  "tel": "2679-2243",
  "name": "鶯歌奇緣動物醫院",
  "zip": 239009,
  "address": "新北市鶯歌區光明街24號",
  "animal_hospital_license": "北縣獸醫業字第273號",
  "administrator": "林顯坤",
  "veterinarian_license": "新北獸師執字第574號",
  "twd97x": 285229.68,
  "twd97y": 2760950.39,
  "wgs84ax": 121.34889,
  "wgs84ay": 24.956009
 },
 {
  "tel": "2695-5119",
  "name": "智遇動物醫院",
  "zip": 221020,
  "address": "新北市汐止區明峰街39號",
  "animal_hospital_license": "北縣獸醫業字第274號",
  "administrator": "蔡文智",
  "veterinarian_license": "新北獸師執字第672號",
  "twd97x": 313942.17,
  "twd97y": 2773825.68,
  "wgs84ax": 121.633825,
  "wgs84ay": 25.071307
 },
 {
  "tel": "2911-6955",
  "name": "喬伊動物醫院",
  "zip": 231026,
  "address": "新北市新店區中興里檳榔路9號",
  "animal_hospital_license": "北縣獸醫業字第277號",
  "administrator": "楊贊育",
  "veterinarian_license": "新北獸師執字第683號",
  "twd97x": 304635.32,
  "twd97y": 2761994.74,
  "wgs84ax": 121.541106,
  "wgs84ay": 24.964864
 },
 {
  "tel": "2910-0995",
  "name": "耕莘動物醫院",
  "zip": 231001,
  "address": "新北市新店區光明街157號",
  "animal_hospital_license": "北縣獸醫業字第278號",
  "administrator": "馬瞻",
  "veterinarian_license": "新北獸師執字第686號",
  "twd97x": 304485.06,
  "twd97y": 2761724.89,
  "wgs84ax": 121.539607,
  "wgs84ay": 24.962433
 },
 {
  "tel": "2974-7741",
  "name": "迦勒動物醫院",
  "zip": 241006,
  "address": "新北市三重區中正南路114號",
  "animal_hospital_license": "北縣獸醫業字第279號",
  "administrator": "吳沛聰",
  "veterinarian_license": "新北獸佐執字第089號",
  "twd97x": 299888.92,
  "twd97y": 2772329.26,
  "wgs84ax": 121.494473,
  "wgs84ay": 25.058327
 },
 {
  "tel": "2984-6306",
  "name": "吉立動物醫院",
  "zip": 241041,
  "address": "新北市三重區中正北路10號",
  "animal_hospital_license": "北縣獸醫業字第280號",
  "administrator": "蔡宗憲",
  "veterinarian_license": "新北獸佐執字第090號",
  "twd97x": 299324.33,
  "twd97y": 2772863.83,
  "wgs84ax": 121.488896,
  "wgs84ay": 25.063172
 },
 {
  "tel": "8287-5849",
  "name": "集賢愛生動物醫院",
  "zip": 241076,
  "address": "新北市三重區集賢路42號",
  "animal_hospital_license": "北縣獸醫業字第281號",
  "administrator": "楊振墉",
  "veterinarian_license": "新北獸師執字第181號",
  "twd97x": 299787.93,
  "twd97y": 2775618.29,
  "wgs84ax": 121.493591,
  "wgs84ay": 25.088024
 },
 {
  "tel": "2809-9591",
  "name": "四季動物醫院",
  "zip": 251627,
  "address": "新北市淡水區民族路33巷16-19號",
  "animal_hospital_license": "北縣獸醫業字第282號",
  "administrator": "黃玠晟",
  "veterinarian_license": "新北獸師執字第692號",
  "twd97x": 296653.74,
  "twd97y": 2780908.01,
  "wgs84ax": 121.462699,
  "wgs84ay": 25.135879
 },
 {
  "tel": "2920-6600",
  "name": "唯光動物醫院",
  "zip": 234023,
  "address": "新北市永和區中正路714號1、2樓",
  "animal_hospital_license": "新北獸醫業字第391號",
  "administrator": "李天惠",
  "veterinarian_license": "新北獸師執字第1307號",
  "twd97x": 302082.12,
  "twd97y": 2766992.21,
  "wgs84ax": 121.516008,
  "wgs84ay": 25.010071
 },
 {
  "tel": "8601-2219",
  "name": "寶護動物醫院",
  "zip": 244006,
  "address": "新北市林口區中山路281號",
  "animal_hospital_license": "新北獸醫業字第052號",
  "administrator": "湯政道",
  "veterinarian_license": "新北獸師執字第154號",
  "twd97x": 288804.55,
  "twd97y": 2774659.77,
  "wgs84ax": 121.384678,
  "wgs84ay": 25.079692
 },
 {
  "tel": "2922-9450",
  "name": "永和獸醫院",
  "zip": 234016,
  "address": "新北市永和區永和路2段336號",
  "animal_hospital_license": "新北獸醫業字第103號",
  "administrator": "劉清風",
  "veterinarian_license": "新北獸佐執字第035號",
  "twd97x": 302124.1,
  "twd97y": 2767716.67,
  "wgs84ax": 121.516451,
  "wgs84ay": 25.01661
 },
 {
  "tel": "8951-2330",
  "name": "邁德氏賽鴿專科醫院",
  "zip": 220072,
  "address": "新北市板橋區海山路11號",
  "animal_hospital_license": "新北獸醫業字第212號",
  "administrator": "郭澤榮",
  "veterinarian_license": "新北獸師執字第1099號",
  "twd97x": 297352.55,
  "twd97y": 2766881.59,
  "wgs84ax": 121.469147,
  "wgs84ay": 25.009227
 },
 {
  "tel": "2601-8364",
  "name": "林口動物醫院",
  "zip": 244005,
  "address": "新北市林口區中正路496號",
  "animal_hospital_license": "新北獸醫業字第225號",
  "administrator": "林仕湶",
  "veterinarian_license": "新北獸佐執字第00094號",
  "twd97x": 288560.14,
  "twd97y": 2774402.85,
  "wgs84ax": 121.382248,
  "wgs84ay": 25.077379
 },
 {
  "tel": "7731-2991",
  "name": "全國動物醫院環球分院",
  "zip": 235008,
  "address": "新北市中和區中山路3段122號",
  "animal_hospital_license": "新北獸醫業字第255號",
  "administrator": "許展誠",
  "veterinarian_license": "新北獸師執字第733號",
  "twd97x": 298014.02,
  "twd97y": 2766534.93,
  "wgs84ax": 121.475688,
  "wgs84ay": 25.006077
 },
 {
  "tel": "2908-9070",
  "name": "新莊太僕動物醫院",
  "zip": 242061,
  "address": "新北市新莊區中正路853號",
  "animal_hospital_license": "新北獸醫業字第286號",
  "administrator": "林毓淳",
  "veterinarian_license": "新北獸師執字第1116號",
  "twd97x": 292399.15,
  "twd97y": 2768946.7,
  "wgs84ax": 121.420136,
  "wgs84ay": 25.028018
 },
 {
  "tel": "8630-2502",
  "name": "麗園動物醫院八里分院",
  "zip": 249002,
  "address": "新北市八里區中山路2段421號",
  "animal_hospital_license": "新北獸醫業字第288號",
  "administrator": "林盈勳",
  "veterinarian_license": "新北獸師執字第710號",
  "twd97x": 290037.48,
  "twd97y": 2782023.59,
  "wgs84ax": 121.397115,
  "wgs84ay": 25.146141
 },
 {
  "tel": "2601-1780",
  "name": "日祥動物醫院",
  "zip": 244005,
  "address": "新北市林口區中正路380號",
  "animal_hospital_license": "新北獸醫業字第289號",
  "administrator": "李佳陵",
  "veterinarian_license": "新北獸師執字第562號",
  "twd97x": 288896.47,
  "twd97y": 2774450.91,
  "wgs84ax": 121.385583,
  "wgs84ay": 25.077805
 },
 {
  "tel": "8914-7888",
  "name": "愛達司動物醫院",
  "zip": 231035,
  "address": "新北市新店區中興路1段261號",
  "animal_hospital_license": "新北獸醫業字第290號",
  "administrator": "陳稚文",
  "veterinarian_license": "新北獸師執字第716號",
  "twd97x": 304981.47,
  "twd97y": 2762277.25,
  "wgs84ax": 121.544545,
  "wgs84ay": 24.967402
 },
 {
  "tel": "2261-1212",
  "name": "禾米動物醫院",
  "zip": 236005,
  "address": "新北市土城區金城路3段173號",
  "animal_hospital_license": "新北獸醫業字第291號",
  "administrator": "李健源",
  "veterinarian_license": "新北獸師執字第724號",
  "twd97x": 297369.45,
  "twd97y": 2764615.08,
  "wgs84ax": 121.469237,
  "wgs84ay": 24.988764
 },
 {
  "tel": "2285-9117",
  "name": "蘆洲動物醫院",
  "zip": 247015,
  "address": "新北市蘆洲區中山二路8號1樓",
  "animal_hospital_license": "新北獸醫業字第292號",
  "administrator": "林伯聰",
  "veterinarian_license": "新北獸佐執字第092號",
  "twd97x": 297965.44,
  "twd97y": 2774932.87,
  "wgs84ax": 121.475499,
  "wgs84ay": 25.081895
 },
 {
  "tel": "2250-1636",
  "name": "紐約紐約動物醫院",
  "zip": 220029,
  "address": "新北市板橋區文化路2段139號",
  "animal_hospital_license": "新北獸醫業字第293號",
  "administrator": "簡柏銓",
  "veterinarian_license": "新北獸師執字第780號",
  "twd97x": 297425.96,
  "twd97y": 2768837.75,
  "wgs84ax": 121.469942,
  "wgs84ay": 25.026885
 },
 {
  "tel": "2948-9666",
  "name": "真正動物醫院",
  "zip": 235063,
  "address": "新北市中和區安平路200-1號",
  "animal_hospital_license": "新北獸醫業字第294號",
  "administrator": "彭寶瑩",
  "veterinarian_license": "新北獸師執字第1071號",
  "twd97x": 301826.93,
  "twd97y": 2765807.54,
  "wgs84ax": 121.513435,
  "wgs84ay": 24.999384
 },
 {
  "tel": "8283-1299",
  "name": "佑欣動物醫院",
  "zip": 247033,
  "address": "新北市蘆洲區光榮路66巷1號",
  "animal_hospital_license": "新北獸醫業字第297號",
  "administrator": "李日翔",
  "veterinarian_license": "新北獸佐執字第079號",
  "twd97x": 296730.74,
  "twd97y": 2775657.99,
  "wgs84ax": 121.463284,
  "wgs84ay": 25.08848
 },
 {
  "tel": "2977-4887",
  "name": "毛孩子動物醫院",
  "zip": 241048,
  "address": "新北市三重區福德北路71號",
  "animal_hospital_license": "新北獸醫業字第303號",
  "administrator": "謝金偉",
  "veterinarian_license": "新北獸師執字第743號",
  "twd97x": 300654.01,
  "twd97y": 2773155.11,
  "wgs84ax": 121.502086,
  "wgs84ay": 25.065758
 },
 {
  "tel": "8601-8432",
  "name": "懷恩動物醫院",
  "zip": 244006,
  "address": "新北市林口區中山路235號",
  "animal_hospital_license": "新北獸醫業字第305號",
  "administrator": "侯國斌",
  "veterinarian_license": "新北獸師執字第790號",
  "twd97x": 288943.95,
  "twd97y": 2774603.69,
  "wgs84ax": 121.386058,
  "wgs84ay": 25.079183
 },
 {
  "tel": "2848-0240",
  "name": "德興動物醫院",
  "zip": 247021,
  "address": "新北市蘆洲區長安街62號",
  "animal_hospital_license": "新北獸醫業字第306號",
  "administrator": "王柏森",
  "veterinarian_license": "新北獸師執字第791號",
  "twd97x": 296698.69,
  "twd97y": 2774715.42,
  "wgs84ax": 121.462934,
  "wgs84ay": 25.079971
 },
 {
  "tel": "2979-2232",
  "name": "獴獴加動物醫院",
  "zip": 241455,
  "address": "新北市三重區重新路4段20號",
  "animal_hospital_license": "新北獸醫業字第308號",
  "administrator": "邱建竹",
  "veterinarian_license": "新北獸師執字第628號",
  "twd97x": 299279.4,
  "twd97y": 2772239.31,
  "wgs84ax": 121.488428,
  "wgs84ay": 25.057535
 },
 {
  "tel": "8259-5001",
  "name": "馬達加斯加動物醫院",
  "zip": 220022,
  "address": "新北市板橋區文化路2段500號",
  "animal_hospital_license": "新北獸醫業字第309號",
  "administrator": "邱宗義",
  "veterinarian_license": "新北獸師執字第615號",
  "twd97x": 298004.7,
  "twd97y": 2769556.37,
  "wgs84ax": 121.475701,
  "wgs84ay": 25.033355
 },
 {
  "tel": "8921-8859",
  "name": "上和動物醫院",
  "zip": 234027,
  "address": "新北市永和區福和路75號",
  "animal_hospital_license": "新北獸醫業字第311號",
  "administrator": "黃國維",
  "veterinarian_license": "新北獸師執字第745號",
  "twd97x": 302746.19,
  "twd97y": 2766745.39,
  "wgs84ax": 121.522578,
  "wgs84ay": 25.007819
 },
 {
  "tel": "2245-5852",
  "name": "上品動物醫院",
  "zip": 235072,
  "address": "新北市中和區中山路2段167號",
  "animal_hospital_license": "新北獸醫業字第314號",
  "administrator": "陳梓逸",
  "veterinarian_license": "新北獸師執字第573號",
  "twd97x": 300602.48,
  "twd97y": 2766170.97,
  "wgs84ax": 121.501319,
  "wgs84ay": 25.002707
 },
 {
  "tel": "2973-8657",
  "name": "德欣動物醫院",
  "zip": 241046,
  "address": "新北市三重區信義街4號",
  "animal_hospital_license": "新北獸醫業字第318號",
  "administrator": "許俊隆",
  "veterinarian_license": "新北獸師執字第853號",
  "twd97x": 300368.16,
  "twd97y": 2773058.44,
  "wgs84ax": 121.499249,
  "wgs84ay": 25.064894
 },
 {
  "tel": "2989-9503",
  "name": "重安動物醫院",
  "zip": 241044,
  "address": "新北市三重區三和路3段20號",
  "animal_hospital_license": "新北獸醫業字第319號",
  "administrator": "魏家梅",
  "veterinarian_license": "新北獸師執字第855號",
  "twd97x": 300107.58,
  "twd97y": 2773652.46,
  "wgs84ax": 121.496688,
  "wgs84ay": 25.070266
 },
 {
  "tel": "8983-6095",
  "name": "廣福動物醫院",
  "zip": 241032,
  "address": "新北市三重區自強路1段197號",
  "animal_hospital_license": "新北獸醫業字第320號",
  "administrator": "張譽耀",
  "veterinarian_license": "新北獸師執字第859號",
  "twd97x": 299610.91,
  "twd97y": 2773435.62,
  "wgs84ax": 121.491757,
  "wgs84ay": 25.068325
 },
 {
  "tel": "2296-5821",
  "name": "台大開心動物醫院",
  "zip": 243084,
  "address": "新北市泰山區明志路1段317號",
  "animal_hospital_license": "新北獸醫業字第321號",
  "administrator": "陳威旭",
  "veterinarian_license": "新北獸師執字第861號",
  "twd97x": 293534.59,
  "twd97y": 2772382.05,
  "wgs84ax": 121.431495,
  "wgs84ay": 25.059
 },
 {
  "tel": "8970-2975",
  "name": "昇昇動物醫院",
  "zip": 238659,
  "address": "新北市樹林區大成路399號",
  "animal_hospital_license": "新北獸醫業字第324號",
  "administrator": "林杏如",
  "veterinarian_license": "新北獸師執字第876號",
  "twd97x": 288486.96,
  "twd97y": 2760316.37,
  "wgs84ax": 121.38113,
  "wgs84ay": 24.950206
 },
 {
  "tel": "2260-7789",
  "name": "馨田動物醫院",
  "zip": 236012,
  "address": "新北市土城區金城路2段388號",
  "animal_hospital_license": "新北獸醫業字第326號",
  "administrator": "李昱璇",
  "veterinarian_license": "新北獸師執字第815號",
  "twd97x": 296796.94,
  "twd97y": 2764257.43,
  "wgs84ax": 121.463554,
  "wgs84ay": 24.985553
 },
 {
  "tel": "8215-1631",
  "name": "明滙動物醫院",
  "zip": 231054,
  "address": "新北市新店區安祥路104-7號GF",
  "animal_hospital_license": "新北獸醫業字第329號",
  "administrator": "葉宸濂",
  "veterinarian_license": "新北獸師執字第901號",
  "twd97x": 298431.94,
  "twd97y": 2761693.38,
  "wgs84ax": 121.479659,
  "wgs84ay": 24.962353
 },
 {
  "tel": "8285-4848",
  "name": "胖皮動物醫院",
  "zip": 247008,
  "address": "新北市蘆洲區復興路174號1樓",
  "animal_hospital_license": "新北獸醫業字第334號",
  "administrator": "李裕銘",
  "veterinarian_license": "新北獸師執字第870號",
  "twd97x": 298188.5,
  "twd97y": 2775648.76,
  "wgs84ax": 121.477736,
  "wgs84ay": 25.088351
 },
 {
  "tel": "2243-6963",
  "name": "杏運草動物醫院",
  "zip": 235039,
  "address": "新北市中和區景平路489號",
  "animal_hospital_license": "新北獸醫業字第337號",
  "administrator": "黃玲頤",
  "veterinarian_license": "新北獸師執字第841號",
  "twd97x": 300482.96,
  "twd97y": 2765613.26,
  "wgs84ax": 121.500114,
  "wgs84ay": 24.997676
 },
 {
  "tel": "2600-3851",
  "name": "臺大健弘動物醫院",
  "zip": 244020,
  "address": "新北市林口區民族路6號",
  "animal_hospital_license": "新北獸醫業字第338號",
  "administrator": "賴采彤",
  "veterinarian_license": "新北獸師執字第840號",
  "twd97x": 286729.24,
  "twd97y": 2773953.62,
  "wgs84ax": 121.364086,
  "wgs84ay": 25.073369
 },
 {
  "tel": "2960-2233",
  "name": "沐愛動物醫院",
  "zip": 220042,
  "address": "新北市板橋區國光路166號",
  "animal_hospital_license": "新北獸醫業字第339號",
  "administrator": "林家佑",
  "veterinarian_license": "新北獸師執字第955號",
  "twd97x": 296449.81,
  "twd97y": 2767870.95,
  "wgs84ax": 121.460237,
  "wgs84ay": 25.018187
 },
 {
  "tel": "8601-2172",
  "name": "仁喆動物醫院",
  "zip": 244009,
  "address": "新北市林口區仁愛路2段172號",
  "animal_hospital_license": "新北獸醫業字第341號",
  "administrator": "李信喆",
  "veterinarian_license": "新北獸師執字第675號",
  "twd97x": 288436.66,
  "twd97y": 2774035.76,
  "wgs84ax": 121.381014,
  "wgs84ay": 25.074068
 },
 {
  "tel": "8646-2773",
  "name": "猩猩狐狸動物醫院",
  "zip": 221043,
  "address": "新北市汐止區仁愛路319號",
  "animal_hospital_license": "新北獸醫業字第342號",
  "administrator": "吳尚諭",
  "veterinarian_license": "新北獸師執字第967號",
  "twd97x": 317038.63,
  "twd97y": 2773430.7,
  "wgs84ax": 121.664497,
  "wgs84ay": 25.067608
 },
 {
  "tel": "8923-1148",
  "name": "全國動物醫院永和分院",
  "zip": 234015,
  "address": "新北市永和區永貞路175號",
  "animal_hospital_license": "新北獸醫業字第343號",
  "administrator": "王國芬",
  "veterinarian_license": "新北獸師執字第976號",
  "twd97x": 302018.43,
  "twd97y": 2766307.78,
  "wgs84ax": 121.515351,
  "wgs84ay": 25.003894
 },
 {
  "tel": "3233-5195",
  "name": "慈恩動物醫院",
  "zip": 234031,
  "address": "新北市永和區永利路142號",
  "animal_hospital_license": "新北獸醫業字第344號",
  "administrator": "楊璧綺",
  "veterinarian_license": "新北獸師執字第635號",
  "twd97x": 302700.65,
  "twd97y": 2766183.48,
  "wgs84ax": 121.522105,
  "wgs84ay": 25.002748
 },
 {
  "tel": "8285-0115",
  "name": "鷺江動物醫院",
  "zip": 247031,
  "address": "新北市蘆洲區中正路209號",
  "animal_hospital_license": "新北獸醫業字第345號",
  "administrator": "陳育仁",
  "veterinarian_license": "新北獸師執字第997號",
  "twd97x": 297233.67,
  "twd97y": 2775395.49,
  "wgs84ax": 121.468261,
  "wgs84ay": 25.086094
 },
 {
  "tel": "2282-5058",
  "name": "欣欣動物醫院",
  "zip": 247020,
  "address": "新北市蘆洲區中山1路160號",
  "animal_hospital_license": "新北獸醫業字第346號",
  "administrator": "甘騰凱",
  "veterinarian_license": "新北獸師執字第867號",
  "twd97x": 297885.83,
  "twd97y": 2774889.51,
  "wgs84ax": 121.474709,
  "wgs84ay": 25.081506
 },
 {
  "tel": "8668-9920",
  "name": "南勢角動物醫院",
  "zip": 235604,
  "address": "新北市中和區捷運路20號",
  "animal_hospital_license": "新北獸醫業字第348號",
  "administrator": "謝易軒",
  "veterinarian_license": "新北獸師執字第1013號",
  "twd97x": 301416.8,
  "twd97y": 2764792.41,
  "wgs84ax": 121.509335,
  "wgs84ay": 24.990233
 },
 {
  "tel": "2673-2730",
  "name": "小野菊動物醫院",
  "zip": 237628,
  "address": "新北市三峽區學府路32號",
  "animal_hospital_license": "新北獸醫業字第350號",
  "administrator": "徐俊智",
  "veterinarian_license": "新北獸師執字第1020號",
  "twd97x": 287614.6,
  "twd97y": 2760072.09,
  "wgs84ax": 121.372484,
  "wgs84ay": 24.948022
 },
 {
  "tel": "8260-2323",
  "name": "大曜動物醫院",
  "zip": 236024,
  "address": "新北市土城區學成路46號",
  "animal_hospital_license": "新北獸醫業字第351號",
  "administrator": "廖欽宏",
  "veterinarian_license": "新北獸師執字第825號",
  "twd97x": 295665.69,
  "twd97y": 2764483.21,
  "wgs84ax": 121.452356,
  "wgs84ay": 24.987626
 },
 {
  "tel": "8968-1075",
  "name": "躍生動物醫院",
  "zip": 220044,
  "address": "新北市板橋區民權路258-2號",
  "animal_hospital_license": "新北獸醫業字第353號",
  "administrator": "丁肇民",
  "veterinarian_license": "新北獸師執字第193號",
  "twd97x": 296233.81,
  "twd97y": 2767526.7,
  "wgs84ax": 121.458085,
  "wgs84ay": 25.015086
 },
 {
  "tel": "2252-3218",
  "name": "板橋動物醫院",
  "zip": 220022,
  "address": "新北市板橋區文化路2段522號",
  "animal_hospital_license": "新北獸醫業字第354號",
  "administrator": "林宗毅",
  "veterinarian_license": "新北獸師執字第1037號",
  "twd97x": 298034.87,
  "twd97y": 2769595.52,
  "wgs84ax": 121.476001,
  "wgs84ay": 25.033707
 },
 {
  "tel": "2959-4455",
  "name": "仁愛動物醫院",
  "zip": 220071,
  "address": "新北市板橋區民族路179號",
  "animal_hospital_license": "新北獸醫業字第357號",
  "administrator": "張福台",
  "veterinarian_license": "新北獸師執字第210號",
  "twd97x": 297311.99,
  "twd97y": 2766699.87,
  "wgs84ax": 121.468739,
  "wgs84ay": 25.007588
 },
 {
  "tel": "2291-5537",
  "name": "成泰動物醫院",
  "zip": 248010,
  "address": "新北市五股區成泰路2段143號",
  "animal_hospital_license": "新北獸醫業字第358號",
  "administrator": "余承諺",
  "veterinarian_license": "新北獸師執字第1051號",
  "twd97x": 294267.37,
  "twd97y": 2775289.69,
  "wgs84ax": 121.438851,
  "wgs84ay": 25.085229
 },
 {
  "tel": "2626-8818",
  "name": "達達動物醫院",
  "zip": 251017,
  "address": "新北市淡水區中山北路1段207巷37弄7號",
  "animal_hospital_license": "新北獸醫業字第359號",
  "administrator": "陳桂蓉",
  "veterinarian_license": "新北獸師執字第1053號",
  "twd97x": 294651.91,
  "twd97y": 2785685.09,
  "wgs84ax": 121.443002,
  "wgs84ay": 25.179067
 },
 {
  "tel": "2600-2216",
  "name": "奇奇動物醫院",
  "zip": 244015,
  "address": "新北市林口區文化3路1段437號",
  "animal_hospital_license": "新北獸醫業字第360號",
  "administrator": "呂理印",
  "veterinarian_license": "新北獸師執字第848號",
  "twd97x": 287095.16,
  "twd97y": 2774073.72,
  "wgs84ax": 121.367717,
  "wgs84ay": 25.074445
 },
 {
  "tel": "2218-1855",
  "name": "原典動物醫院",
  "zip": 231015,
  "address": "新北市新店區中央5街15號",
  "animal_hospital_license": "新北獸醫業字第361號",
  "administrator": "孫全",
  "veterinarian_license": "新北獸師執字第1069號",
  "twd97x": 303476.33,
  "twd97y": 2763053.15,
  "wgs84ax": 121.529669,
  "wgs84ay": 24.97446
 },
 {
  "tel": "8672-3030",
  "name": "伯特利動物醫院",
  "zip": 237020,
  "address": "新北市三峽區學成路323號",
  "animal_hospital_license": "新北獸醫業字第362號",
  "administrator": "康文",
  "veterinarian_license": "新北獸師執字第1072號",
  "twd97x": 288103.71,
  "twd97y": 2759677.19,
  "wgs84ax": 121.377317,
  "wgs84ay": 24.944445
 },
 {
  "tel": "2943-6696",
  "name": "依努動物醫院",
  "zip": 235065,
  "address": "新北市中和區安平路56號",
  "animal_hospital_license": "新北獸醫業字第363號",
  "administrator": "黃智琦",
  "veterinarian_license": "新北獸師執字第1705號",
  "twd97x": 301539.17,
  "twd97y": 2765409.59,
  "wgs84ax": 121.51057,
  "wgs84ay": 24.995801
 },
 {
  "tel": "2952-9000",
  "name": "曙光動物醫院",
  "zip": 220074,
  "address": "新北市板橋區中山路1段309號",
  "animal_hospital_license": "新北獸醫業字第364號",
  "administrator": "蔡長杰",
  "veterinarian_license": "新北獸師執字第1093號",
  "twd97x": 297576.64,
  "twd97y": 2767491.91,
  "wgs84ax": 121.471388,
  "wgs84ay": 25.01473
 },
 {
  "tel": "2945-5050",
  "name": "威安動物醫院",
  "zip": 235062,
  "address": "新北市中和區安平路25號",
  "animal_hospital_license": "新北獸醫業字第366號",
  "administrator": "林沂嫻",
  "veterinarian_license": "新北獸師執字第747號",
  "twd97x": 301403.77,
  "twd97y": 2765254.46,
  "wgs84ax": 121.509223,
  "wgs84ay": 24.994405
 },
 {
  "tel": "2955-5781",
  "name": "樂喆動物醫院",
  "zip": 220083,
  "address": "新北市板橋區三民路2段203-4號",
  "animal_hospital_license": "新北獸醫業字第367號",
  "administrator": "蔡岱珈",
  "veterinarian_license": "新北獸師執字第1115號",
  "twd97x": 298363.46,
  "twd97y": 2767362.35,
  "wgs84ax": 121.479179,
  "wgs84ay": 25.013535
 },
 {
  "tel": "2857-3578",
  "name": "頑皮動物醫院",
  "zip": 241074,
  "address": "新北市三重區溪尾街374、376號",
  "animal_hospital_license": "新北獸醫業字第368號",
  "administrator": "王譽學",
  "veterinarian_license": "新北獸師執字第753號",
  "twd97x": 299311.2,
  "twd97y": 2775359.39,
  "wgs84ax": 121.488855,
  "wgs84ay": 25.085702
 },
 {
  "tel": "8287-2913",
  "name": "小森林動物醫院",
  "zip": 241754,
  "address": "新北市三重區集英路68號",
  "animal_hospital_license": "新北獸醫業字第369號",
  "administrator": "黃郁純",
  "veterinarian_license": "新北獸師執字第1135號",
  "twd97x": 299016.28,
  "twd97y": 2775416.93,
  "wgs84ax": 121.485934,
  "wgs84ay": 25.086231
 },
 {
  "tel": "2971-0123",
  "name": "宏誠動物醫院",
  "zip": 241014,
  "address": "新北市三重區捷運路33號1F、2F",
  "animal_hospital_license": "新北獸醫業字第371號",
  "administrator": "莊淳翔",
  "veterinarian_license": "新北獸師執字第1055號",
  "twd97x": 298930.59,
  "twd97y": 2772074.39,
  "wgs84ax": 121.484965,
  "wgs84ay": 25.056058
 },
 {
  "tel": "2876-4537",
  "name": "芯安動物醫院",
  "zip": 251027,
  "address": "新北市淡水區民族路33-7號",
  "animal_hospital_license": "新北獸醫業字第372號",
  "administrator": "林政維",
  "veterinarian_license": "新北獸師執字第1157號",
  "twd97x": 296702.01,
  "twd97y": 2780878.17,
  "wgs84ax": 121.463177,
  "wgs84ay": 25.135608
 },
 {
  "tel": "8285-8600",
  "name": "布魯斯動物醫院",
  "zip": 247018,
  "address": "新北市蘆洲區重陽街68號",
  "animal_hospital_license": "新北獸醫業字第373號",
  "administrator": "陳榮志",
  "veterinarian_license": "新北獸師執字第700號",
  "twd97x": 298601.74,
  "twd97y": 2775169.25,
  "wgs84ax": 121.481815,
  "wgs84ay": 25.084009
 },
 {
  "tel": "2987-1289",
  "name": "樂田動物醫院",
  "zip": 241016,
  "address": "新北市三重區忠孝路2段102號1F、2F",
  "animal_hospital_license": "新北獸醫業字第374號",
  "administrator": "陳昭燕",
  "veterinarian_license": "新北獸師執字第1184號",
  "twd97x": 298778.89,
  "twd97y": 2773532.45,
  "wgs84ax": 121.483513,
  "wgs84ay": 25.069226
 },
 {
  "tel": "2270-8259",
  "name": "康馨動物醫院",
  "zip": 236027,
  "address": "新北市土城區中央路1段234號",
  "animal_hospital_license": "新北獸醫業字第375號",
  "administrator": "彭志樺",
  "veterinarian_license": "新北獸師執字第1196號",
  "twd97x": 294891.07,
  "twd97y": 2764202.08,
  "wgs84ax": 121.444673,
  "wgs84ay": 24.985111
 },
 {
  "tel": "8218-2557",
  "name": "寧恩動物醫院",
  "zip": 220052,
  "address": "新北市板橋區館前西路120號2樓",
  "animal_hospital_license": "新北獸醫業字第377號",
  "administrator": "黃思齊",
  "veterinarian_license": "新北獸師執字第1223號",
  "twd97x": 296110.58,
  "twd97y": 2766704.67,
  "wgs84ax": 121.456837,
  "wgs84ay": 25.007668
 },
 {
  "tel": "2904-7859",
  "name": "守護動物醫院",
  "zip": 242052,
  "address": "新北市新莊區中正路891-32號",
  "animal_hospital_license": "新北獸醫業字第378號",
  "administrator": "林志豪",
  "veterinarian_license": "新北獸師執字第1224號",
  "twd97x": 291852.69,
  "twd97y": 2768421.17,
  "wgs84ax": 121.414705,
  "wgs84ay": 25.023289
 },
 {
  "tel": "2673-9191",
  "name": "淯生動物醫院",
  "zip": 237019,
  "address": "新北市三峽區復興路36-1號",
  "animal_hospital_license": "新北獸醫業字第379號",
  "administrator": "林炎生",
  "veterinarian_license": "新北獸佐執字第84號",
  "twd97x": 287786.14,
  "twd97y": 2758797.36,
  "wgs84ax": 121.374148,
  "wgs84ay": 24.93651
 },
 {
  "tel": "8262-1687",
  "name": "安星動物醫院",
  "zip": 236028,
  "address": "新北市土城區中央路2段8號",
  "animal_hospital_license": "新北獸醫業字第380號",
  "administrator": "鄭俊星",
  "veterinarian_license": "新北獸佐執字第96號",
  "twd97x": 294710.73,
  "twd97y": 2763722.4,
  "wgs84ax": 121.442871,
  "wgs84ay": 24.980786
 },
 {
  "mobile_phone": "0910-355687",
  "name": "五股動物醫院",
  "zip": 248007,
  "address": "新北市五股區民義路1段34號",
  "animal_hospital_license": "新北獸醫業字第381號",
  "administrator": "黃國榮",
  "veterinarian_license": "新北獸師執字第1253號",
  "twd97x": 294088.54,
  "twd97y": 2775141.16,
  "wgs84ax": 121.437074,
  "wgs84ay": 25.083894
 },
 {
  "mobile_phone": "0920-663331",
  "name": "可頌動物醫院",
  "zip": 252003,
  "address": "新北市三芝區橫山里橫山35-2號",
  "animal_hospital_license": "新北獸醫業字第382號",
  "administrator": "鄭以晴",
  "veterinarian_license": "新北獸師執字第1075號",
  "twd97x": 304971.33,
  "twd97y": 2794483.96,
  "wgs84ax": 121.545734,
  "wgs84ay": 25.258159
 },
 {
  "tel": "2608-7725",
  "name": "達特蘇動物醫院",
  "zip": 244018,
  "address": "新北市林口區南勢街322號",
  "animal_hospital_license": "新北獸醫業字第383號",
  "administrator": "蘇信豪",
  "veterinarian_license": "新北獸師執字第964號",
  "twd97x": 286010.94,
  "twd97y": 2774323.34,
  "wgs84ax": 121.356976,
  "wgs84ay": 25.076724
 },
 {
  "mobile_phone": "0988-967291",
  "name": "北海岸出診動物醫院",
  "zip": 208002,
  "address": "新北市金山區忠孝一路56號",
  "animal_hospital_license": "新北獸醫業字第384號",
  "administrator": "陳文欽",
  "veterinarian_license": "新北獸師執字第1268號",
  "twd97x": 314239.1,
  "twd97y": 2790354.28,
  "wgs84ax": 121.637543,
  "wgs84ay": 25.220509
 },
 {
  "tel": "8286-0264",
  "name": "東憲動物醫院",
  "zip": 247012,
  "address": "新北市蘆洲區長樂路36號1樓",
  "animal_hospital_license": "新北獸醫業字第385號",
  "administrator": "程逸旻",
  "veterinarian_license": "新北獸師執字第1276號",
  "twd97x": 296763.6,
  "twd97y": 2775328.6,
  "wgs84ax": 121.463599,
  "wgs84ay": 25.085505
 },
 {
  "tel": "8965-0318",
  "name": "展翔動物醫院",
  "zip": 220050,
  "address": "新北市板橋區南雅西路2段97號",
  "animal_hospital_license": "新北獸醫業字第386號",
  "administrator": "林彥銘",
  "veterinarian_license": "新北獸佐執字第60號",
  "twd97x": 295678,
  "twd97y": 2767017.94,
  "wgs84ax": 121.452561,
  "wgs84ay": 25.010509
 },
 {
  "tel": "2990-0578",
  "name": "魏大夫動物醫院",
  "zip": 242041,
  "address": "新北市新莊區中原東路57號1樓",
  "animal_hospital_license": "新北獸醫業字第387號",
  "administrator": "魏鵬儒",
  "veterinarian_license": "新北獸師執字第號",
  "twd97x": 296763.71,
  "twd97y": 2771882.14,
  "wgs84ax": 121.463483,
  "wgs84ay": 25.054391
 },
 {
  "tel": "2628-3506",
  "name": "維康動物診所",
  "zip": 251026,
  "address": "新北市淡水區新春街85巷8號",
  "animal_hospital_license": "新北獸醫業字第390號",
  "administrator": "鄭淞清",
  "veterinarian_license": "新北獸師執字第379號",
  "twd97x": 294233.2,
  "twd97y": 2786097.59,
  "wgs84ax": 121.438861,
  "wgs84ay": 25.182803
 },
 {
  "tel": "2946-6633",
  "name": "雙和動物醫院",
  "zip": 234022,
  "address": "新北市永和區中正路617號",
  "animal_hospital_license": "新北獸醫業字第392號",
  "administrator": "趙安基",
  "veterinarian_license": "新北獸師執字第330號",
  "twd97x": 302088.52,
  "twd97y": 2766963.55,
  "wgs84ax": 121.516071,
  "wgs84ay": 25.009812
 },
 {
  "tel": "2206-0006",
  "name": "登華動物醫院",
  "zip": 242057,
  "address": "新北市新莊區龍安路256號2樓",
  "animal_hospital_license": "新北獸醫業字第393號",
  "administrator": "王柏崴",
  "veterinarian_license": "新北獸師執字第1213號",
  "twd97x": 292531.64,
  "twd97y": 2768005.26,
  "wgs84ax": 121.421419,
  "wgs84ay": 25.019515
 },
 {
  "tel": "8522-7590",
  "name": "霍普獸醫病理專科醫院",
  "zip": 242030,
  "address": "新北市新莊區中信街176號20樓之6",
  "animal_hospital_license": "新北獸醫業字第395號",
  "administrator": "江家瑋",
  "veterinarian_license": "新北獸師執字第1083號",
  "twd97x": 295193.2,
  "twd97y": 2772214.33,
  "wgs84ax": 121.447928,
  "wgs84ay": 25.057437
 },
 {
  "tel": "2976-0125",
  "name": "森寵動物醫院三和分院",
  "zip": 241048,
  "address": "新北市三重區三和路2段164號",
  "animal_hospital_license": "新北獸醫業字第396號",
  "administrator": "陳冠廷",
  "veterinarian_license": "新北獸師執字第1376號",
  "twd97x": 300356.76,
  "twd97y": 2773469.14,
  "wgs84ax": 121.499151,
  "wgs84ay": 25.068603
 },
 {
  "mobile_phone": "0933-068342",
  "name": "光禾動物醫院",
  "zip": 247024,
  "address": "新北市蘆洲區永康街35號1樓",
  "animal_hospital_license": "新北獸醫業字第397號",
  "administrator": "屈承賢",
  "veterinarian_license": "新北獸師執字第1131號",
  "twd97x": 296129.78,
  "twd97y": 2775282.8,
  "wgs84ax": 121.457314,
  "wgs84ay": 25.085111
 },
 {
  "tel": "8295-0204",
  "name": "小傢伙動物醫院",
  "zip": 248023,
  "address": "新北市五股區成泰路1段44號1樓",
  "animal_hospital_license": "新北獸醫業字第398號",
  "administrator": "蔡明宏",
  "veterinarian_license": "新北獸師執字第684號",
  "twd97x": 293929,
  "twd97y": 2773500.23,
  "wgs84ax": 121.43544,
  "wgs84ay": 25.069084
 },
 {
  "tel": "2642-2280",
  "name": "好悠動物醫院",
  "zip": 221037,
  "address": "新北市汐止區大同路2段247號",
  "animal_hospital_license": "新北獸醫業字第399號",
  "administrator": "彭品潔",
  "veterinarian_license": "新北獸師執字第723號",
  "twd97x": 315923.23,
  "twd97y": 2773175.16,
  "wgs84ax": 121.65343,
  "wgs84ay": 25.06535
 },
 {
  "tel": "2997-9733",
  "name": "哈比動物醫院",
  "zip": 242022,
  "address": "新北市新莊區幸福路596號及600號",
  "animal_hospital_license": "新北獸醫業字第400號",
  "administrator": "邱裕盛",
  "veterinarian_license": "新北獸師執字第533號",
  "twd97x": 295743.81,
  "twd97y": 2771321.93,
  "wgs84ax": 121.453356,
  "wgs84ay": 25.049364
 },
 {
  "tel": "8914-6999",
  "name": "金氏動物醫院",
  "zip": 231035,
  "address": "新北市新店區中興路1段208號1樓",
  "animal_hospital_license": "新北獸醫業字第401號",
  "administrator": "金仕謙",
  "veterinarian_license": "新北獸師執字第1355號",
  "twd97x": 304911.09,
  "twd97y": 2762061.46,
  "wgs84ax": 121.54384,
  "wgs84ay": 24.965456
 },
 {
  "tel": "7713-6617",
  "name": "橙芯動物醫院",
  "zip": 220056,
  "address": "新北市板橋區貴興路100號1樓、B1",
  "animal_hospital_license": "新北獸醫業字第402號",
  "administrator": "唐彩庭",
  "veterinarian_license": "新北獸師執字第1125號",
  "twd97x": 295987.41,
  "twd97y": 2766140.74,
  "wgs84ax": 121.455597,
  "wgs84ay": 25.002581
 },
 {
  "tel": "2968-0101",
  "name": "愛心堡動物醫院",
  "zip": 220571,
  "address": "新北市板橋區合宜一路69號",
  "animal_hospital_license": "新北獸醫業字第403號",
  "administrator": "陳忠信",
  "veterinarian_license": "新北獸師執字第1222號",
  "twd97x": 294858.11,
  "twd97y": 2765451.69,
  "wgs84ax": 121.444387,
  "wgs84ay": 24.996394
 },
 {
  "tel": "8522-0040",
  "name": "飛躍動物醫院",
  "zip": 242045,
  "address": "新北市新莊區中原東路200號",
  "animal_hospital_license": "新北獸醫業字第404號",
  "administrator": "周昱如",
  "veterinarian_license": "新北獸師執字第1358號",
  "twd97x": 296469.61,
  "twd97y": 2771892.21,
  "wgs84ax": 121.460568,
  "wgs84ay": 25.054491
 },
 {
  "tel": "2952-8989",
  "name": "青亞動物醫院",
  "zip": 220747,
  "address": "新北市板橋區光環路1段80號1樓",
  "animal_hospital_license": "新北獸醫業字第406號",
  "administrator": "謝青峰",
  "veterinarian_license": "新北獸師執字第1377號",
  "twd97x": 298614.93,
  "twd97y": 2767731.89,
  "wgs84ax": 121.481684,
  "wgs84ay": 25.016864
 },
 {
  "tel": "2994-4631",
  "name": "亞哲動物醫院",
  "zip": 220081,
  "address": "新北市板橋區中山路2段388之4號",
  "animal_hospital_license": "新北獸醫業字第407號",
  "administrator": "籃俊偉",
  "veterinarian_license": "新北獸師執字第1309號",
  "twd97x": 298689.23,
  "twd97y": 2768139.52,
  "wgs84ax": 121.482434,
  "wgs84ay": 25.020541
 },
 {
  "tel": "3151-1107",
  "name": "貝果動物醫院",
  "zip": 235065,
  "address": "新北市中和區安樂路75號",
  "animal_hospital_license": "新北獸醫業字第408號",
  "administrator": "吳佳倩",
  "veterinarian_license": "新北獸師執字第1391號",
  "twd97x": 301744.09,
  "twd97y": 2765220.81,
  "wgs84ax": 121.512593,
  "wgs84ay": 24.99409
 },
 {
  "tel": "2988-0822",
  "name": "愛竹動物醫院",
  "zip": 248014,
  "address": "新北市五股區四維路102號",
  "animal_hospital_license": "新北獸醫業字第409號",
  "administrator": "陳欣妍",
  "veterinarian_license": "新北獸師執字第1264號",
  "twd97x": 297170.84,
  "twd97y": 2773999.01,
  "wgs84ax": 121.46759,
  "wgs84ay": 25.073489
 },
 {
  "tel": "6605-8166",
  "name": "卡朵動物醫院",
  "zip": 251015,
  "address": "新北市淡水區中正路2段12號",
  "animal_hospital_license": "新北獸醫業字第410號",
  "administrator": "黃靖峰",
  "veterinarian_license": "新北獸師執字第1209號",
  "twd97x": 292419.61,
  "twd97y": 2785851.61,
  "wgs84ax": 121.42086,
  "wgs84ay": 25.180635
 },
 {
  "tel": "8286-0066",
  "name": "星宇動物醫院",
  "zip": 247011,
  "address": "新北市蘆洲區長榮路256號1樓",
  "animal_hospital_license": "新北獸醫業字第411號",
  "administrator": "楊傑宇",
  "veterinarian_license": "新北獸師執字第1205號",
  "twd97x": 296460,
  "twd97y": 2775370.31,
  "wgs84ax": 121.460591,
  "wgs84ay": 25.085891
 },
 {
  "mobile_phone": "0921-228348",
  "name": "心恩動物醫院",
  "zip": 234031,
  "address": "新北市永和區永利路94巷3號1樓",
  "animal_hospital_license": "新北獸醫業字第412號",
  "administrator": "顏慶芳",
  "veterinarian_license": "新北獸師執字第1286號",
  "twd97x": 302560.38,
  "twd97y": 2766263.45,
  "wgs84ax": 121.520719,
  "wgs84ay": 25.003475
 },
 {
  "tel": "8231-7050",
  "name": "豆皮動物醫院",
  "zip": 234045,
  "address": "新北市永和區中正路279號",
  "animal_hospital_license": "新北獸醫業字第413號",
  "administrator": "黃晨洋",
  "veterinarian_license": "新北獸師執字第1435號",
  "twd97x": 302234.96,
  "twd97y": 2765991.31,
  "wgs84ax": 121.517485,
  "wgs84ay": 25.001029
 },
 {
  "tel": "2990-0262",
  "name": "布納動物醫院",
  "zip": 242035,
  "address": "新北市新莊區思源路332巷22號",
  "animal_hospital_license": "新北獸醫業字第414號",
  "administrator": "蔡智堅",
  "veterinarian_license": "新北獸師執字第1447號",
  "twd97x": 296491.16,
  "twd97y": 2771477.53,
  "wgs84ax": 121.460768,
  "wgs84ay": 25.050746
 },
 {
  "tel": "2996-0026",
  "name": "森寵動物醫院",
  "zip": 242015,
  "address": "新北市新莊區中正路2號",
  "animal_hospital_license": "新北獸醫業字第415號",
  "administrator": "朱道南",
  "veterinarian_license": "新北獸師執字第1471號",
  "twd97x": 296151.05,
  "twd97y": 2770060.67,
  "wgs84ax": 121.45735,
  "wgs84ay": 25.037965
 },
 {
  "tel": "2975-7666",
  "name": "茂生動物醫院",
  "zip": 241001,
  "address": "新北市三重區重新路1段64號",
  "animal_hospital_license": "新北獸醫業字第417號",
  "administrator": "康嘉哲",
  "veterinarian_license": "新北獸佐執字第039號",
  "twd97x": 300666.82,
  "twd97y": 2772922.48,
  "wgs84ax": 121.502204,
  "wgs84ay": 25.063657
 },
 {
  "tel": "2986-0239",
  "name": "嘉興動物醫院",
  "zip": 241036,
  "address": "新北市三重區忠孝路1段24號",
  "animal_hospital_license": "新北獸醫業字第418號",
  "administrator": "蕭家文",
  "veterinarian_license": "新北獸師執字第1064號",
  "twd97x": 299613.66,
  "twd97y": 2773809.69,
  "wgs84ax": 121.491798,
  "wgs84ay": 25.071702
 },
 {
  "mobile_phone": "0972-170010",
  "name": "頂點動物醫院",
  "zip": 234007,
  "address": "新北市永和區仁愛路87號",
  "animal_hospital_license": "新北獸醫業字第419號",
  "administrator": "林献霖",
  "veterinarian_license": "新北獸師執字第1454號",
  "twd97x": 301780.56,
  "twd97y": 2767338.08,
  "wgs84ax": 121.513033,
  "wgs84ay": 25.013203
 },
 {
  "tel": "2606-9183",
  "name": "太陽動物醫院",
  "zip": 244017,
  "address": "新北市林口區文化三路2段87號",
  "animal_hospital_license": "新北獸醫業字第420號",
  "administrator": "邱紹軒",
  "veterinarian_license": "新北獸師執字第1457號",
  "twd97x": 287778.48,
  "twd97y": 2774775.43,
  "wgs84ax": 121.37451,
  "wgs84ay": 25.080763
 },
 {
  "mobile_phone": "0988-055705",
  "name": "嘉貝動物醫院",
  "zip": 242045,
  "address": "新北市新莊區昌和街65號",
  "animal_hospital_license": "新北獸醫業字第421號",
  "administrator": "林艾德",
  "veterinarian_license": "新北獸師執字第1465號",
  "twd97x": 295675.13,
  "twd97y": 2772077.71,
  "wgs84ax": 121.4527,
  "wgs84ay": 25.05619
 },
 {
  "tel": "8671-9996",
  "name": "濰邇動物醫院",
  "zip": 237016,
  "address": "新北市三峽區長泰街94號",
  "animal_hospital_license": "新北獸醫業字第422號",
  "administrator": "黃瑞雅",
  "veterinarian_license": "新北獸師執字第1215號",
  "twd97x": 287990.48,
  "twd97y": 2758439.51,
  "wgs84ax": 121.376162,
  "wgs84ay": 24.933274
 },
 {
  "tel": "2625-2205",
  "name": "小小尾巴動物醫院",
  "zip": 251660,
  "address": "新北市淡水區新市三路2段265號",
  "animal_hospital_license": "新北獸醫業字第423號",
  "administrator": "蔡旻烜",
  "veterinarian_license": "新北獸師執字第1331號",
  "twd97x": 294132.97,
  "twd97y": 2787534.74,
  "wgs84ax": 121.437913,
  "wgs84ay": 25.195781
 },
 {
  "tel": "8261-6079",
  "name": "毛宇宙動物醫院",
  "zip": 236030,
  "address": "新北市土城區員林街71巷2號",
  "animal_hospital_license": "新北獸醫業字第424號",
  "administrator": "林庭毅",
  "veterinarian_license": "新北獸師執字第1299號",
  "twd97x": 294868.02,
  "twd97y": 2763333.22,
  "wgs84ax": 121.444417,
  "wgs84ay": 24.977268
 },
 {
  "tel": "8992-4900",
  "name": "同心動物醫院",
  "zip": 242006,
  "address": "新北市新莊區新泰路474號",
  "animal_hospital_license": "新北獸醫業字第425號",
  "administrator": "許哲賓",
  "veterinarian_license": "新北獸師執字第1486號",
  "twd97x": 294710.11,
  "twd97y": 2770871.81,
  "wgs84ax": 121.443097,
  "wgs84ay": 25.045331
 },
 {
  "tel": "2997-2812",
  "name": "護生動物醫院",
  "zip": 242031,
  "address": "新北市新莊區中和街93號",
  "animal_hospital_license": "新北獸醫業字第426號",
  "administrator": "楊維榮",
  "veterinarian_license": "新北獸師執字第1486號",
  "twd97x": 295139.85,
  "twd97y": 2771181.16,
  "wgs84ax": 121.447366,
  "wgs84ay": 25.048111
 },
 {
  "tel": "2260-6861",
  "name": "可麗兒動物醫院",
  "zip": 236030,
  "address": "新北市土城區中央路2段20之1號",
  "animal_hospital_license": "新北獸醫業字第427號",
  "administrator": "黃宥誠",
  "veterinarian_license": "新北獸師執字第1501號",
  "twd97x": 294700.76,
  "twd97y": 2763682.49,
  "wgs84ax": 121.442771,
  "wgs84ay": 24.980426
 },
 {
  "tel": "2243-0813",
  "name": "花花動物醫院",
  "zip": 235041,
  "address": "新北市中和區中正路212號",
  "animal_hospital_license": "新北獸醫業字第428號",
  "administrator": "林思嫺",
  "veterinarian_license": "新北獸師執字第1504號",
  "twd97x": 300137.34,
  "twd97y": 2765206.39,
  "wgs84ax": 121.496676,
  "wgs84ay": 24.994014
 },
 {
  "tel": "2968-5116",
  "name": "舍享動物醫院",
  "zip": 220050,
  "address": "新北市板橋區林園街22號1樓",
  "animal_hospital_license": "新北獸醫業字第429號",
  "administrator": "王俊力",
  "veterinarian_license": "新北獸師執字第1511號",
  "twd97x": 295810.92,
  "twd97y": 2766952.53,
  "wgs84ax": 121.453876,
  "wgs84ay": 25.009915
 },
 {
  "tel": "2946-7888",
  "name": "慈愛動物醫院東森廣場分院",
  "zip": 235606,
  "address": "新北市中和區景平路258號",
  "animal_hospital_license": "新北獸醫業字第430號",
  "administrator": "潘又瑄",
  "veterinarian_license": "新北獸師執字第1514號",
  "twd97x": 301978.43,
  "twd97y": 2765051.07,
  "wgs84ax": 121.514908,
  "wgs84ay": 24.992549
 },
 {
  "tel": "2946-8818",
  "name": "綠野動物醫院",
  "zip": 235075,
  "address": "新北市中和區景平路335-1號",
  "animal_hospital_license": "新北獸醫業字第431號",
  "administrator": "李思齊",
  "veterinarian_license": "新北獸師執字第1107號",
  "twd97x": 301037.01,
  "twd97y": 2765124.33,
  "wgs84ax": 121.505585,
  "wgs84ay": 24.993243
 },
 {
  "tel": "2621-7987",
  "name": "淡水動物醫院",
  "zip": 251011,
  "address": "新北市淡水區淡水區中山路159-2號",
  "animal_hospital_license": "新北獸醫業字第432號",
  "administrator": "王靜琪",
  "veterinarian_license": "新北獸師執字第567號",
  "twd97x": 0,
  "twd97y": 0
 },
 {
  "tel": "2250-5251",
  "name": "呼嚕貓專科醫院",
  "zip": 220030,
  "address": "新北市板橋區光武街95號",
  "animal_hospital_license": "新北獸醫業字第433號",
  "administrator": "劉子華",
  "veterinarian_license": "新北獸師執字第1520號",
  "twd97x": 297095.55,
  "twd97y": 2768866.31,
  "wgs84ax": 121.466669,
  "wgs84ay": 25.027153
 },
 {
  "tel": "2957-1990",
  "name": "維納斯動物醫院",
  "zip": 220073,
  "address": "新北市板橋區中山路1段105號",
  "animal_hospital_license": "新北獸醫業字第434號",
  "administrator": "葉以淇",
  "veterinarian_license": "新北獸師執字第1528號",
  "twd97x": 296606.63,
  "twd97y": 2766990.36,
  "wgs84ax": 121.461761,
  "wgs84ay": 25.010232
 },
 {
  "tel": "2280-7675",
  "name": "家麒獸醫院",
  "zip": 241059,
  "address": "新北市三重區三重區力行路2段145號",
  "animal_hospital_license": "新北獸醫業字第435號",
  "administrator": "顏銘佐",
  "veterinarian_license": "新北獸佐執字第049號",
  "twd97x": 0,
  "twd97y": 0
 },
 {
  "tel": "2222-6136",
  "name": "中和杜瑪動物醫院",
  "zip": 235024,
  "address": "新北市中和區中原街136號",
  "animal_hospital_license": "新北獸醫業字第436號",
  "administrator": "江明憲",
  "veterinarian_license": "新北獸師執字第1506號",
  "twd97x": 299007.57,
  "twd97y": 2767129.66,
  "wgs84ax": 121.485553,
  "wgs84ay": 25.011414
 },
 {
  "tel": "2626-9575",
  "name": "慕光動物醫院",
  "zip": 251017,
  "address": "新北市淡水區中山北路1段174號",
  "animal_hospital_license": "新北獸醫業字第437號",
  "administrator": "蔡立民",
  "veterinarian_license": "新北獸師執字第1529號",
  "twd97x": 294818.82,
  "twd97y": 2785638.29,
  "wgs84ax": 121.444656,
  "wgs84ay": 25.17864
 },
 {
  "mobile_phone": "0912-286586",
  "name": "啤酒豬動物醫院",
  "zip": 221023,
  "address": "新北市汐止區忠三街120巷54號1樓",
  "animal_hospital_license": "新北獸醫業字第438號",
  "administrator": "陳冠穎",
  "veterinarian_license": "新北獸師執字第1411號",
  "twd97x": 313515.97,
  "twd97y": 2774735.7,
  "wgs84ax": 121.629642,
  "wgs84ay": 25.079541
 },
 {
  "tel": "7753-8597",
  "name": "上弦動物醫院",
  "zip": 244118,
  "address": "新北市林口區忠福路129號",
  "animal_hospital_license": "新北獸醫業字第439號",
  "administrator": "柯慶澤",
  "veterinarian_license": "新北獸師執字第1537號",
  "twd97x": 286455.98,
  "twd97y": 2774393.71,
  "wgs84ax": 121.361389,
  "wgs84ay": 25.077349
 },
 {
  "tel": "7752-3368",
  "name": "安晴動物醫院汐止院",
  "zip": 221044,
  "address": "新北市汐止區新興路3號",
  "animal_hospital_license": "新北獸醫業字第440號",
  "administrator": "楊蓀荃",
  "veterinarian_license": "新北獸師執字第1538號",
  "twd97x": 316222.52,
  "twd97y": 2773148.7,
  "wgs84ax": 121.656395,
  "wgs84ay": 25.065098
 },
 {
  "tel": "2257-9596",
  "name": "吉恩動物醫院",
  "zip": 220030,
  "address": "新北市板橋區華江一路596號",
  "animal_hospital_license": "新北獸醫業字第441號",
  "administrator": "張泮崇",
  "veterinarian_license": "新北獸師執字第1542號",
  "twd97x": 296968.41,
  "twd97y": 2769484.14,
  "wgs84ax": 121.46543,
  "wgs84ay": 25.032735
 },
 {
  "tel": "7755-2055",
  "name": "聯盟林口文化動物醫院",
  "zip": 244016,
  "address": "新北市林口區文化二路2段68號2樓",
  "animal_hospital_license": "新北獸醫業字第442號",
  "administrator": "黃鈞奕",
  "veterinarian_license": "新北獸師執字第1544號",
  "twd97x": 288141.64,
  "twd97y": 2774736.64,
  "wgs84ax": 121.378109,
  "wgs84ay": 25.080403
 }
]